 2014 0205 1636 09.2 L   6.157  -0.068 0.00  BER  4 .20 2.8LBER                1
 GAP=229   BER 0.630       7.8     2.4  7.3 -0.1744E+02 -0.7313E+01  0.2732E+02E
 2014-02-05-1634-34S.NSN___015                                                 6
 OLDACT:REG 21-08-27 20:06 OP:opt  STATUS:               ID:20140205163434     3
 OLDACT:UP  21-08-28 15:46 OP:opt  STATUS:               ID:20140205163434     3
 ACTION:UP  21-08-29 22:58 OP:opt  STATUS:               ID:20140205163434     I
 OLDACT:UP  21-08-29 22:55 OP:opt  STATUS:               ID:20140205163434     3
 STAT COM NTLO IPHASE   W HHMM SS.SSS   PAR1  PAR2 AGA OPE  AIN  RES W  DIS CAZ7
 AKOS HHZ GH   IP         1636 12.550              BER opt 91.0-0.1910 21.7  44 
 AKOS HHN GH   ISg        1636 15.570              BER opt 91.0 0.2410 21.7  44 
 AKOS HHE GH    IAML      1636 16.150 2669.5  0.18 BER opt      0.09   21.7  44 
 AKOS HHE GH    IAML      1636 16.160 2669.5  0.18 BER opt      0.09   21.7  44 
 KUKU HHZ GH   IP         1636 14.240              BER opt 90.0-0.3910 33.4 277 
 KUKU HHE GH   ISg        1636 18.650              BER opt 90.0 0.0210 33.4 277 
 KUKU HHT GH   ISg        1636 18.700              BER opt 90.0 0.0710 33.4 277 
 KUKU HHN GH   ISg        1636 18.750              BER opt 90.0 0.1210 33.4 277 
 KUKU HHN GH    IAML      1636 18.830  617.5  0.30 BER opt     -0.31   33.4 277 
 KUKU HHE GH    IAML      1636 22.400  640.5  0.16 BER opt     -0.30   33.4 277 
 KLEF HHZ GH   IP         1636 21.620              BER opt 90.0 0.1810 75.7  48 
 KLEF HHN GH   ISg        1636 30.240              BER opt 90.0-0.2310 75.7  48 
 KLEF HHN GH    IAML      1636 32.510  696.0  0.12 BER opt      0.21   75.7  48 
 MRON HHZ GH   IP         1636 34.340              BER opt 50.0 0.3510  155 283 
 MRON HHE GH    IAML      1636 37.020  239.0  0.14 BER opt      0.24    155 283 
 MRON HHN GH   ISg        1636 52.640              BER opt 90.0-0.1610  155 283 
                                                                                
 2014 0212 1849 35.7 L   5.510  -0.548 0.00  BER  5 .50 3.8LBER                1
 GAP=247   BER  1.22       7.2     3.4 13.1  0.8847E+01  0.1444E+02  0.4125E+02E
 2014-02-12-1846-47S.NSN___015                                                 6
 OLDACT:REG 21-08-27 20:05 OP:opt  STATUS:               ID:20140212184647     3
 ACTION:UP  21-08-29 22:59 OP:opt  STATUS:               ID:20140212184647     I
 OLDACT:UP  21-08-28 15:49 OP:opt  STATUS:               ID:20140212184647     3
 STAT COM NTLO IPHASE   W HHMM SS.SSS   PAR1  PAR2 AGA OPE  AIN  RES W  DIS CAZ7
 WEIJ HHZ GH   IP         1849 39.940              BER opt 91.0 0.1110 25.3  70 
 WEIJ HHN GH   ISg        1849 42.670              BER opt 91.0-0.1810 25.3  70 
 WEIJ HHN GH    IAML      1849 43.070 6117.0  0.38 BER opt     -0.51   25.3  70 
 KUKU HHZ GH   IP         1849 48.120              BER opt 90.0-0.2010 78.0  15 
 KUKU HHN GH   ISg        1849 58.450              BER opt 90.0 0.8210 78.0  15 
 KUKU HHE GH    IAML      1850 00.910 5986.5  0.12 BER opt      0.12   78.0  15 
 AKOS HHZ GH   IP         1849 53.390              BER opt 90.0-0.2110  111  38 
 AKOS HHN GH    IAML      1849 55.970 2488.5  0.22 BER opt     -0.02    111  38 
 MRON HHZ GH   IP         1849 59.550              BER opt 70.0 0.5910  144 317 
 MRON HHN GH   ISg        1850 15.560              BER opt 90.0-0.6910  144 317 
 MRON HHN GH    IAML      1850 20.410 1636.0  0.46 BER opt     -0.02    144 317 
 KLEF HHZ GH   IP         1850 01.810              BER opt 50.0 0.2310  164  42 
 KLEF HHN GH    IAML      1850 02.390 3594.0  0.12 BER opt      0.42    164  42 
 KLEF HHN GH   ISg        1850 21.280              BER opt 90.0-0.4810  164  42 
                                                                                
 2014 0213 0803 11.8 L                                                         1
 2014-02-13-0803-12S.NSN___015                                                 6
 ACTION:REG 21-08-27 20:03 OP:opt  STATUS:               ID:20140213080311     I
 STAT COM NTLO IPHASE   W HHMM SS.SSS   PAR1  PAR2 AGA OPE  AIN  RES W  DIS CAZ7
 WEIJ HHZ GH   IP         0804 58.832              BER opt                      
 WEIJ HHN GH   ISg        0805 00.580              BER opt                      
 WEIJ HHE GH    IAML      0805 00.868 4161.0  0.18 BER opt                      
 KUKU HHZ GH   IP         0805 08.266              BER opt                      
 KUKU HHN GH   ISg        0805 16.595              BER opt                      
 KUKU HHE GH    IAML      0805 20.600 1080.5  0.12 BER opt                      
 AKOS HHE GH   ISg        0805 22.970              BER opt                      
 AKOS HHZ GH   IP         0805 11.820              BER opt                      
 KLEF HHN GH    IAML      0805 36.975  608.5  0.10 BER opt                      
 MRON HHN GH    IAML      0805 51.175  176.0  47.2 BER opt                      
                                                                                
 2014 0213 0811 27.2 L   5.640  -0.281 0.10  BER  5 2.2 3.2LBER                1
 GAP=189   BER  5.88      15.8    17.8 59.5 -0.1668E+03  0.1805E+03 -0.9249E+02E
 2014-02-13-0809-40S.NSN___015                                                 6
 OLDACT:REG 21-08-27 20:02 OP:opt  STATUS:               ID:20140213080939     3
 ACTION:UP  21-08-29 23:21 OP:opt  STATUS:               ID:20140213080939     I
 OLDACT:UP  21-08-29 23:20 OP:opt  STATUS:               ID:20140213080939     3
 STAT COM NTLO IPHASE   W HHMM SS.SSS   PAR1  PAR2 AGA OPE  AIN  RES W  DIS CAZ7
 WEIJ HHZ GH   IP         0811 27.230              BER opt 92.0-1.2910 8.09 226 
 WEIJ HHE GH   ISg        0811 29.070              BER opt 92.0-0.4210 8.09 226 
 WEIJ HHN GH    IAML      0811 29.40016205.0  0.20 BER opt     -0.10   8.09 226 
 KUKU HHZ GH   IP         0811 36.580              BER opt 90.0-0.6110 61.9 351 
 KUKU HHN GH   ISg        0811 44.560              BER opt 90.0-0.0210 61.9 351 
 KUKU HHE GH    IAML      0811 46.570 1706.0  0.12 BER opt      0.01   61.9 351 
 AKOS HHZ GH   IP         0811 39.670              BER opt 90.0-0.8510 82.5  28 
 AKOS HHN GH   ISg        0811 51.030              BER opt 90.0 0.6710 82.5  28 
 AKOS HHE GH    IAML      0811 52.400  619.0  0.26 BER opt     -0.26   82.5  28 
 KLEF HHZ GH   IP         0811 47.920              BER opt 90.0-0.9310  134  37 
 KLEF HHN GH   ISg        0812 04.340              BER opt 90.0-0.5210  134  37 
 KLEF HHE GH    IAML      0812 05.620 1092.5  0.50 BER opt      0.32    134  37 
 MRON HHZ GH   IP         0811 58.550              BER opt 50.0 6.3510  157 306 
 MRON HHE GH   ISg        0812 08.940              BER opt 90.0-2.3810  157 306 
 MRON HHN GH    IAML      0812 09.970  416.5  0.18 BER opt      0.02    157 306 
                                                                                
 2014  216 16 3 57.9 L                                                         1
 ACTION:REG 21-08-27 20:00 OP:opt  STATUS:               ID:20140216160357     I
 2014-02-16-1603-58S.NSN___015                                                 6
 STAT COM NTLO IPHASE   W HHMM SS.SSS   PAR1  PAR2 AGA OPE  AIN  RES W  DIS CAZ7
                                                                                
 2014 0223 1519 47.1 L   5.778  -0.394 0.00  BER  4 .20 2.6LBER                1
 GAP=141   BER 0.640       1.3     2.0 13.3  0.3556E+00  0.1084E+02  0.1302E+00E
 2014-02-23-1518-10S.NSN___015                                                 6
 OLDACT:REG 21-08-27 19:58 OP:opt  STATUS:               ID:20140223151809     3
 OLDACT:UP  21-08-28 15:52 OP:opt  STATUS:               ID:20140223151809     3
 ACTION:UP  21-08-29 23:28 OP:opt  STATUS:               ID:20140223151809     I
 OLDACT:UP  21-08-29 23:23 OP:opt  STATUS:               ID:20140223151809     3
 STAT COM NTLO IPHASE   W HHMM SS.SSS   PAR1  PAR2 AGA OPE  AIN  RES W  DIS CAZ7
 WEIJ HHZ GH   IP         1519 50.540              BER opt 91.0-0.1110 22.0 162 
 WEIJ HHE GH   ISg        1519 53.300              BER opt 91.0 0.0210 22.0 162 
 WEIJ HHN GH    IAML      1519 54.900  824.0  0.30 BER opt     -0.28   22.0 162 
 KUKU HHZ GH   IP         1519 54.090              BER opt 90.0-0.4010 45.8   3 
 KUKU HHN GH   ISg        1519 59.790              BER opt 90.0-0.1810 45.8   3 
 KUKU HHN GH    IAML      1520 05.290  194.0  0.12 BER opt     -0.51   45.8   3 
 AKOS HHE GH    IAML      1520 13.800  226.0  0.20 BER opt     -0.14   76.9  42 
 KLEF HHZ GH   IP         1520 08.130              BER opt 90.0-0.0410  131  45 
 KLEF HHN GH   ISg        1520 24.120              BER opt 90.0 0.3610  131  45 
 KLEF HHE GH    IAML      1520 29.850  540.0  0.14 BER opt      0.60    131  45 
 MRON HHZ GH   IP         1520 09.650      D       BER opt 70.0 0.2710  138 303 
 MRON HHE GH   ISg        1520 25.970              BER opt 90.0 0.0910  138 303 
 MRON HHN GH    IAML      1520 27.090  257.5  0.14 BER opt      0.32    138 303 
                                                                                
 2014 0301 1819 31.2 L   5.742  -0.484 15.0  BER  3 .30 3.1LBER                1
 GAP=239   BER 0.810       2.0     5.6  5.3  0.1356E+01 -0.3767E+01 -0.4729E+01E
 2014-03-01-1817-55S.NSN___015                                                 6
 OLDACT:REG 21-08-27 16:01 OP:opt  STATUS:               ID:20140301181754     3
 ACTION:UP  21-08-29 23:29 OP:opt  STATUS:               ID:20140301181754     I
 OLDACT:UP  21-08-28 15:54 OP:opt  STATUS:               ID:20140301181754     3
 STAT COM NTLO IPHASE   W HHMM SS.SSS   PAR1  PAR2 AGA OPE  AIN  RES W  DIS CAZ7
 WEIJ HHZ GH   IP         1819 35.890              BER opt118.0 0.1510 23.8 136 
 WEIJ HHE GH   ISg        1819 38.860              BER opt118.0-0.2110 23.8 136 
 WEIJ HHN GH    IAML      1819 40.010 3026.0  0.36 BER opt     -0.03   23.8 136 
 KUKU HHZ GH   IP         1819 39.280              BER opt 98.0-0.4510 51.4  14 
 KUKU HHN GH   ISg        1819 46.080              BER opt 98.0 0.0610 51.4  14 
 KUKU HHN GH    IAML      1819 51.260  741.0  0.12 BER opt     -0.28   51.4  14 
 KUKU HHE GH    IAML      1819 51.260 1692.0  0.12 BER opt      0.08   51.4  14 
 KLEF HHZ GH   IP         1819 53.190              BER opt 55.0 0.5110  141  47 
 KLEF HHN GH   ISg        1820 09.420              BER opt 92.0-0.0810  141  47 
 KLEF HHE GH    IAML      1820 14.690  562.0  0.48 BER opt      0.24    141  47 
                                                                                
 2014 0308 2303 36.6 L   5.406  -0.352 0.00  BER  4 .10 3.7LBER                1
 GAP=326   BER 0.410       4.5     3.5  6.7 -0.8507E+01 -0.1016E+02  0.2287E+02E
 2014-03-08-2301-40S.NSN___015                                                 6
 OLDACT:REG 21-08-27 15:59 OP:opt  STATUS:               ID:20140308230140     3
 ACTION:UP  21-08-29 23:31 OP:opt  STATUS:               ID:20140308230140     I
 OLDACT:UP  21-08-28 15:57 OP:opt  STATUS:               ID:20140308230140     3
 STAT COM NTLO IPHASE   W HHMM SS.SSS   PAR1  PAR2 AGA OPE  AIN  RES W  DIS CAZ7
 WEIJ HHZ GH   IP         2303 40.060              BER opt 91.0 0.1410 20.3   6 
 WEIJ HHE GH   ISg        2303 42.380              BER opt 91.0 0.0410 20.3   6 
 WEIJ HHN GH    IAML      2303 42.760 7467.5  0.20 BER opt     -0.43   20.3   6 
 KUKU HHZ GH   IP         2303 50.480              BER opt 90.0-0.2010 87.0 359 
 AKOS HHE GH   ISg        2304 07.350              BER opt 90.0 0.0810  109  25 
 AKOS HHN GH    IAML      2304 09.640 1145.5  0.10 BER opt     -0.26    109  25 
 KLEF HHZ GH   IP         2304 02.030              BER opt 50.0 0.0510  160  33 
 KLEF HHN GH   ISg        2304 21.400              BER opt 90.0-0.1110  160  33 
 KLEF HHN GH    IAML      2304 22.860 3703.5  0.10 BER opt      0.53    160  33 
 MRON HHN GH    IAML      2304 24.450 1460.0  0.14 BER opt      0.16    168 314 
                                                                                
