 2013 1013 1321 36.1 L   5.547  -0.358 6.50  BER  5 .30 3.9LBER                1
 GAP=274   BER 0.920       4.6     2.8  3.3 -0.2017E+01  0.2183E+01  0.1399E+01E
 2013-10-13-1319-37S.NSN___015                                                 6
 ACTION:UP  21-08-28 14:55 OP:opt  STATUS:               ID:20131013131937     I
 OLDACT:REG 21-08-27 21:37 OP:opt  STATUS:               ID:20131013131937     3
 STAT COM NTLO IPHASE   W HHMM SS.SSS   PAR1  PAR2 AGA OPE  AIN  RES W  DIS CAZ7
 WEIJ HHZ GH   IP         1321 37.100              BER opt141.0-0.3310 5.34  31 
 WEIJ HHE GH   ISg        1321 38.750              BER opt141.0 0.3010 5.34  31 
 WEIJ HHN GH    IAML      1321 39.19040370.0  0.26 BER opt     -0.34   5.34  31 
 KUKU HHZ GH   IP         1321 47.470              BER opt 95.0-0.1510 71.4 359 
 KUKU HHE GH   ISg        1321 56.600              BER opt 95.0 0.4310 71.4 359 
 KUKU HHN GH    IAML      1322 00.540 3706.0  0.16 BER opt     -0.23   71.4 359 
 AKOS HHZ GH   IP         1321 51.920              BER opt 94.0 0.4210 95.5  30 
 AKOS HHN GH   ISg        1322 02.960              BER opt 94.0 0.0310 95.5  30 
 AKOS HHN GH    IAML      1322 08.450 1955.0  0.12 BER opt     -0.32   95.5  30 
 KLEF HHZ GH   IP         1321 59.140              BER opt 50.0-0.0310  147  37 
 KLEF HHE GH   ISg        1322 16.900              BER opt 93.0-0.5810  147  37 
 KLEF HHN GH    IAML      1322 18.730 3633.0  0.10 BER opt      0.25    147  37 
 MRON HHZ GH   IP         1322 00.630              BER opt 50.0 0.2910  157 310 
 MRON HHN GH   ISg        1322 19.710              BER opt 92.0-0.3810  157 310 
 MRON HHN GH    IAML      1322 21.310 7909.0  0.18 BER opt      0.64    157 310 
                                                                                
 2013 1016 1024 07.0 L   5.783  -0.390 0.00  BER  4 .30 2.6LBER                1
 GAP=139   BER 0.780       1.6     2.4 16.2  0.4683E+00  0.1593E+02  0.1200E+00E
 2013-10-16-1022-11S.NSN___015                                                 6
 OLDACT:REG 21-08-27 21:36 OP:opt  STATUS:               ID:20131016102210     3
 ACTION:UP  21-08-29 21:28 OP:opt  STATUS:               ID:20131016102210     I
 OLDACT:UP  21-08-29 21:26 OP:opt  STATUS:               ID:20131016102210     3
 STAT COM NTLO IPHASE   W HHMM SS.SSS   PAR1  PAR2 AGA OPE  AIN  RES W  DIS CAZ7
 WEIJ HHZ GH   IP         1024 10.370              BER opt 91.0-0.2610 22.4 164 
 WEIJ HHN GH   ISg        1024 13.350              BER opt 91.0 0.0510 22.4 164 
 WEIJ HHE GH    IAML      1024 13.670  812.5  0.50 BER opt     -0.24   22.4 164 
 KUKU HHZ GH   IP         1024 13.990              BER opt 90.0-0.3310 45.3   3 
 KUKU HHN GH   ISg        1024 19.590              BER opt 90.0-0.1410 45.3   3 
 KUKU HHN GH    IAML      1024 27.330  990.0  0.12 BER opt      0.23   45.3   3 
 KLEF HHZ GH   IP         1024 28.080              BER opt 90.0 0.1010  130  45 
 KLEF HHN GH   ISg        1024 43.660              BER opt 90.0 0.1710  130  45 
 MRON HHZ GH   IP         1024 29.930              BER opt 70.0 0.6210  138 303 
 MRON HHN GH   ISg        1024 45.630              BER opt 90.0-0.1910  138 303 
                                                                                
 2013 1019 1342  0.0 L                                                         1
 ACTION:REG 21-08-27 21:35 OP:opt  STATUS:               ID:20131019134200     I
 2013-10-19-1342-00S.NSN___015                                                 6
 STAT COM NTLO IPHASE   W HHMM SS.SSS   PAR1  PAR2 AGA OPE  AIN  RES W  DIS CAZ7
                                                                                
 2013 1020 1344  4.0 L                                                         1
 ACTION:REG 21-08-27 21:34 OP:opt  STATUS:               ID:20131020134404     I
 2013-10-20-1344-04S.NSN___015                                                 6
 STAT COM NTLO IPHASE   W HHMM SS.SSS   PAR1  PAR2 AGA OPE  AIN  RES W  DIS CAZ7
                                                                                
 2013 1102 1512 49.2 L   6.033  -0.090 18.4  BER  4 1.6 3.0LBER                1
 GAP=166   BER  4.09      11.7    12.6 28.2 -0.3387E+02 -0.3286E+02 -0.2358E+01E
 2013-11-02-1510-57S.NSN___015                                                 6
 OLDACT:REG 21-08-27 21:33 OP:opt  STATUS:               ID:20131102151057     3
 OLDACT:UP  21-08-28 15:18 OP:opt  STATUS:               ID:20131102151057     3
 ACTION:UP  21-08-29 21:51 OP:opt  STATUS:               ID:20131102151057     I
 STAT COM NTLO IPHASE   W HHMM SS.SSS   PAR1  PAR2 AGA OPE  AIN  RES W  DIS CAZ7
 KUKU HHZ GH   IP         1512 57.250              BER opt113.0 1.6710 35.5 300 
 KUKU HHN GH   ISg        1513 00.570              BER opt113.0 1.2410 35.5 300 
 KUKU HHN GH    IAML      1513 09.460 2232.5  0.16 BER opt      0.08   35.5 300 
 WEIJ HHZ GH   IP         1512 59.160              BER opt103.0 0.8010 56.0 209 
 WEIJ HHN GH   ISg        1513 04.410              BER opt103.0-1.0510 56.0 209 
 WEIJ HHN GH    IAML      1513 05.330  685.0  0.14 BER opt     -0.21   56.0 209 
 KLEF HHN GH   ISg        1513 26.590              BER opt 97.0-1.0810 87.1  42 
 KLEF HHN GH    IAML      1513 13.840  541.5  0.10 BER opt     -0.05   87.1  42 
 MRON HHN GH   IP         1513 13.990              BER opt 55.0 1.4110  157 288 
 MRON HHE GH   ISg        1513 28.920              BER opt 93.0-2.9810  157 288 
 MRON HHE GH    IAML      1513 32.390  353.0  0.16 BER opt      0.17    157 288 
 KLEF HHZ GH   IP         1513 12.300              BER opt                      
                                                                                
 2013 1105 1814 49.0 L   5.559  -0.520 0.00  BER  4 .10 3.2LBER                1
 GAP=234   BER 0.360       2.6     1.1  3.9  0.9312E+00  0.7361E+00  0.3819E+01E
 2013-11-05-1812-52S.NSN___015                                                 6
 OLDACT:REG 21-08-27 21:32 OP:opt  STATUS:               ID:20131105181252     3
 OLDACT:UP  21-08-28 15:00 OP:opt  STATUS:               ID:20131105181252     3
 ACTION:UP  21-08-29 22:06 OP:opt  STATUS:               ID:20131105181252     I
 OLDACT:UP  21-08-28 15:00 OP:opt  STATUS:               ID:20131105181252     3
 STAT COM NTLO IPHASE   W HHMM SS.SSS   PAR1  PAR2 AGA OPE  AIN  RES W  DIS CAZ7
 WEIJ HHZ GH   IP         1814 52.310              BER opt 91.0-0.0910 20.9  81 
 WEIJ HHN GH    IAML      1814 55.330 3827.5  0.24 BER opt     -0.22   20.9  81 
 KUKU HHZ GH   IP         1815 00.540              BER opt 90.0-0.1010 72.0  13 
 KUKU HHN GH    IAML      1815 13.360  863.0  0.12 BER opt     -0.18   72.0  13 
 MRON HHZ GH   IP         1815 12.060              BER opt 70.0 0.0810  143 315 
 MRON HHE GH   ISg        1815 29.000              BER opt 90.0-0.0510  143 315 
 MRON HHN GH    IAML      1815 29.750  349.5  0.16 BER opt     -0.10    143 315 
 KLEF HHZ GH   IP         1815 14.220              BER opt 50.0 0.1210  158  42 
 KLEF HHN GH   ISg        1815 33.370              BER opt 90.0 0.0410  158  42 
 KLEF HHN GH    IAML      1815 35.470 1207.5  0.50 BER opt      0.51    158  42 
                                                                                
 2013 1118 1851 58.4 L   5.559  -0.483 0.00  BER  4 1.4 2.7LBER                1
 GAP=235   BER  3.54      18.3     9.7 38.0  0.7238E+02  0.1167E+03  0.2535E+03E
 2013-11-18-1850-00S.NSN___015                                                 6
 OLDACT:REG 21-08-27 21:29 OP:opt  STATUS:               ID:20131118185000     3
 OLDACT:UP  21-08-28 15:14 OP:opt  STATUS:               ID:20131118185000     3
 ACTION:UP  21-08-29 22:10 OP:opt  STATUS:               ID:20131118185000     I
 STAT COM NTLO IPHASE   W HHMM SS.SSS   PAR1  PAR2 AGA OPE  AIN  RES W  DIS CAZ7
 WEIJ HHZ GH   IP         1852 00.010              BER opt 91.0-1.0710 16.9  79 
 WEIJ HHN GH   ISg        1852 03.510              BER opt 91.0 0.3710 16.9  79 
 WEIJ HHN GH    IAML      1852 03.630  899.5  0.32 BER opt     -0.46   16.9  79 
 KUKU HHN GH   ISg        1852 18.850              BER opt 90.0 0.5110 71.2  10 
 KUKU HHN GH    IAML      1852 21.530  314.0  0.44 BER opt     -0.12   71.2  10 
 MRON HHE GH   ISg        1852 37.100              BER opt 90.0-1.9110  146 314 
 MRON HHN GH    IAML      1852 40.670  267.0  0.30 BER opt      0.29    146 314 
 KLEF HHZ GH   IP         1852 50.150              BER opt 50.0-0.8110  155  41 
 KLEF HHN GH   ISg        1852 22.270              BER opt 90.0 0.1310  155  41 
 KLEF HHN GH    IAML      1852 43.310  234.0  0.14 BER opt      0.28    155  41 
 MRON HHZ GH   IP         1852 19.910              BER opt 70.0 2.7710  146 314 
                                                                                
 2013 1123 1056 54.5 L                                                         1
 ACTION:REG 21-08-27 21:28 OP:opt  STATUS:               ID:20131123105654     I
 2013-11-23-1056-54S.NSN___015                                                 6
 STAT COM NTLO IPHASE   W HHMM SS.SSS   PAR1  PAR2 AGA OPE  AIN  RES W  DIS CAZ7
                                                                                
 2013 1129 1909 49.2 L   5.547  -0.529 0.00  BER  4 .10 3.5LBER                1
 GAP=237   BER 0.400       2.1     1.1  4.2  0.9615E+00  0.1477E+01  0.3460E+01E
 2013-11-29-1908-01S.NSN___015                                                 6
 OLDACT:REG 21-08-27 21:27 OP:opt  STATUS:               ID:20131129190800     3
 OLDACT:UP  21-08-28 15:16 OP:opt  STATUS:               ID:20131129190800     3
 ACTION:UP  21-08-29 22:22 OP:opt  STATUS:               ID:20131129190800     I
 OLDACT:UP  21-08-29 22:18 OP:opt  STATUS:               ID:20131129190800     3
 STAT COM NTLO IPHASE   W HHMM SS.SSS   PAR1  PAR2 AGA OPE  AIN  RES W  DIS CAZ7
 WEIJ HHZ GH   IP         1909 52.680              BER opt 91.0-0.0910 22.1  78 
 WEIJ HHN GH    IAML      1909 53.080 2324.0  0.26 BER opt     -0.66   22.1  78 
 WEIJ HHN GH   ISg        1909 55.480              BER opt 91.0 0.0610 22.1  78 
 KUKU HHZ GH   IP         1910 00.810              BER opt 90.0-0.2510 73.5  14 
 KUKU HHN GH   ISg        1910 09.910              BER opt 90.0 0.0810 73.5  14 
 KUKU HHN GH    IAML      1910 14.000 1130.5  0.20 BER opt     -0.30   73.5  14 
 AKOS HHN GH    IAML      1910 08.330 1659.0  0.10 BER opt      0.11    106  38 
 MRON HHZ GH   IP         1910 12.350              BER opt 70.0 0.1610  143 315 
 MRON HHN GH   ISg        1910 29.240              BER opt 90.0-0.0510  143 315 
 MRON HHN GH    IAML      1910 33.480 2004.5  0.10 BER opt      0.40    143 315 
 KLEF HHZ GH   IP         1910 14.550              BER opt 50.0 0.0710  160  42 
 KLEF HHN GH   ISg        1910 33.980              BER opt 90.0 0.0110  160  42 
 KLEF HHN GH    IAML      1910 35.950 1879.0  0.10 BER opt      0.46    160  42 
                                                                                
 2013 12 9 1657 16.0 L                                                         1
 ACTION:REG 21-08-27 21:26 OP:opt  STATUS:               ID:20131209165716     I
 2013-12-09-1657-16S.NSN___015                                                 6
 STAT COM NTLO IPHASE   W HHMM SS.SSS   PAR1  PAR2 AGA OPE  AIN  RES W  DIS CAZ7
                                                                                
 2013 1211 1744 44.3 L   6.176  -0.077 0.00  BER  5 .30 3.1LBER                1
 GAP=154   BER 0.800       3.6     1.9  8.2 -0.4117E+01  0.2055E+01  0.6245E+00E
 2013-12-11-1742-47S.NSN___015                                                 6
 OLDACT:REG 21-08-27 21:25 OP:opt  STATUS:               ID:20131211174247     3
 ACTION:UP  21-08-29 22:25 OP:opt  STATUS:               ID:20131211174247     I
 OLDACT:UP  21-08-28 15:40 OP:opt  STATUS:               ID:20131211174247     3
 STAT COM NTLO IPHASE   W HHMM SS.SSS   PAR1  PAR2 AGA OPE  AIN  RES W  DIS CAZ7
 AKOS HHZ GH   IP         1744 47.450              BER opt 91.0-0.1910 20.9  50 
 AKOS HHN GH   ISg        1744 49.870              BER opt 91.0-0.2710 20.9  50 
 AKOS HHN GH    IAML      1744 50.370 5626.0  0.20 BER opt      0.11   20.9  50 
 KUKU HHZ GH   IP         1744 49.340              BER opt 90.0-0.1410 32.4 273 
 KUKU HHN GH   ISg        1744 53.300              BER opt 90.0-0.0410 32.4 273 
 KUKU HHN GH    IAML      1744 59.910 1407.0  0.24 BER opt     -0.26   32.4 273 
 WEIJ HHZ GH   IP         1744 55.850              BER opt 90.0 0.1510 70.9 204 
 WEIJ HHN GH    IAML      1745 11.410  466.5  0.34 BER opt     -0.29   70.9 204 
 KLEF HHZ GH   IP         1744 55.970              BER opt 90.0-0.3810 75.0  50 
 KLEF HHN GH   ISg        1745 05.970              BER opt 90.0 0.6710 75.0  50 
 KLEF HHE GH    IAML      1745 07.480 1403.0  0.14 BER opt      0.22   75.0  50 
 MRON HHZ GH   IP         1745 08.920              BER opt 50.0 0.0710  154 282 
 MRON HHN GH   ISg        1745 27.570              BER opt 90.0 0.1210  154 282 
 MRON HHN GH    IAML      1745 31.860  458.0  0.22 BER opt      0.23    154 282 
                                                                                
 2013 1212 1051 48.9 L   6.227  -0.129 0.00  BER  5 1.0 2.8LBER                1
 GAP=135   BER  2.46      14.2     7.2 51.6 -0.7559E+02  0.1694E+03 -0.2434E+03E
 2013-12-12-1049-53S.NSN___015                                                 6
 OLDACT:REG 21-08-27 20:37 OP:opt  STATUS:               ID:20131212104952     3
 ACTION:UP  21-08-28 15:29 OP:opt  STATUS:               ID:20131212104952     I
 STAT COM NTLO IPHASE   W HHMM SS.SSS   PAR1  PAR2 AGA OPE  AIN  RES W  DIS CAZ7
 AKOS HHZ GH   IP         1051 52.400              BER opt 91.0-0.2710 23.2  70 
 AKOS HHN GH   ISg        1051 55.390              BER opt 91.0-0.0410 23.2  70 
 AKOS HHN GH    IAML      1051 55.950 4187.0  0.18 BER opt      0.33   23.2  70 
 KUKU HHZ GH   IP         1051 54.040              BER opt 91.0 0.7810 26.8 262 
 KUKU HHE GH   ISg        1051 54.580              BER opt 91.0-1.8810 26.8 262 
 KUKU HHN GH    IAML      1051 58.520  904.0  0.20 BER opt     -0.26   26.8 262 
 WEIJ HHZ GH   IP         1052 01.010              BER opt 90.0 0.1210 74.1 198 
 KLEF HHZ GH   IP         1052 01.310              BER opt 90.0 0.1010 76.1  56 
 KLEF HHN GH   ISg        1052 09.840              BER opt 90.0-0.4610 76.1  56 
 MRON HHZ GH   IP         1052 14.230      D       BER opt 70.0 1.6610  147 280 
 MRON HHN GH   ISg        1052 32.267              BER opt                      
 MRON HHE GH    IAML      1052 34.089  406.5  0.14 BER opt                      
 KLEF HHE GH    IAML      1052 13.900 1053.0  0.20 BER opt                      
                                                                                
 2013 1214 1627 45.4 L   5.949  -0.467 8.70  BER  3 .00 3.1LBER                1
 GAP=223   BER 0.340       1.9    10.7  5.4 -0.1552E+02 -0.4489E+02  0.7288E+01E
 2013-12-14-1625-50S.NSN___015_SEI                                             6
 OLDACT:REG 21-08-27 20:34 OP:opt  STATUS:               ID:20131214162550     3
 ACTION:UP  21-08-28 15:35 OP:opt  STATUS:               ID:20131214162550     I
 STAT COM NTLO IPHASE   W HHMM SS.SSS   PAR1  PAR2 AGA OPE  AIN  RES W  DIS CAZ7
 KUKU HHZ GH   IP         1627 50.250              BER opt107.0 0.0010 29.0  22 
 KUKU HHN GH   ISg        1627 53.870              BER opt107.0-0.0010 29.0  22 
 KUKU HHN GH    IAML      1628 03.060 4124.0  0.14 BER opt      0.13   29.0  22 
 KLEF HHZ GH   IP         1628 05.090              BER opt 70.0 0.0010  125  54 
 KLEF HHN GH    IAML      1628 29.360  690.0  2.96 BER opt      0.21    125  54 
 WEIJ HHN GH   IP         1627 52.360              BER opt102.0-0.0010 42.5 160 
 WEIJ HHN GH    IAML      1627 59.300  916.0  0.30 BER opt     -0.33   42.5 160 
 WEIJ HHN GH   ISg        1627 57.734              BER opt                      
                                                                                
 2014 0109 1818 48.0 L   5.775  -0.401 5.00  BER  4 .30 3.1LBER                1
 GAP=144   BER 0.770       1.8     2.2  7.5  0.3542E+00  0.2638E+01 -0.4959E+01E
 2014-01-09-1817-10S.NSN___015_SEI                                             6
 OLDACT:REG 21-08-27 20:11 OP:opt  STATUS:               ID:20140109181710     3
 OLDACT:UP  21-08-28 15:44 OP:opt  STATUS:               ID:20140109181710     3
 ACTION:UP  21-08-29 22:44 OP:opt  STATUS:               ID:20140109181710     I
 OLDACT:UP  21-08-29 22:38 OP:opt  STATUS:               ID:20140109181710     3
 STAT COM NTLO IPHASE   W HHMM SS.SSS   PAR1  PAR2 AGA OPE  AIN  RES W  DIS CAZ7
 WEIJ HHZ GH   IP         1818 51.550              BER opt103.0-0.1110 22.0 160 
 WEIJ HHE GH   ISg        1818 54.500              BER opt103.0 0.1410 22.0 160 
 WEIJ HHN GH    IAML      1818 55.660 2361.5  0.38 BER opt     -0.29   22.0 160 
 KUKU HHZ GH   IP         1818 54.860              BER opt 96.0-0.6610 46.2   4 
 KUKU HHN GH   ISg        1819 01.230              BER opt 96.0 0.1510 46.2   4 
 KUKU HHE GH    IAML      1819 01.420 4208.0  0.12 BER opt      0.35   46.2   4 
 AKOS HHN GH    IAML      1819 01.620  505.0  0.12 BER opt     -0.26   77.7  42 
 KLEF HHZ GH   IP         1819 08.910              BER opt 70.0-0.0910  131  45 
 KLEF HHN GH   ISg        1819 25.240              BER opt 92.0 0.3010  131  45 
 KLEF HHN GH    IAML      1819 26.990  470.0  0.10 BER opt      0.06    131  45 
 MRON HHZ GH   IP         1819 10.090              BER opt 70.0 0.1410  138 304 
 MRON HHN GH   ISg        1819 26.840              BER opt 92.0 0.1510  138 304 
 MRON HHE GH    IAML      1819 27.740  498.5  0.14 BER opt      0.12    138 304 
                                                                                
 2014 0113 2209 03.7 L   5.642  -0.308 0.00  BER  3 .50 2.8LBER                1
 GAP=168   BER  1.17       3.1     4.0 12.7 -0.5358E+01  0.1322E+02 -0.1087E+02E
 2014-01-13-2207-29S.NSN___015                                                 6
 ACTION:UP  21-08-29 22:50 OP:opt  STATUS:               ID:20140113220729     I
 OLDACT:REG 21-08-27 20:16 OP:opt  STATUS:               ID:20140113220729     3
 STAT COM NTLO IPHASE   W HHMM SS.SSS   PAR1  PAR2 AGA OPE  AIN  RES W  DIS CAZ7
 WEIJ HHZ GH   IP         2209 04.360              BER opt 92.0-0.3710 6.54 205 
 WEIJ HHN GH   ISg        2209 05.730              BER opt 92.0 0.2110 6.54 205 
 WEIJ HHE GH    IAML      2209 06.210 5890.5  0.22 BER opt     -0.15   6.54 205 
 KLEF HHZ GH   IP         2209 25.000              BER opt 90.0-0.5710  136  38 
 KLEF HHN GH   ISg        2209 42.110              BER opt 90.0 0.3310  136  38 
 KLEF HHE GH    IAML      2209 44.250  303.0  0.12 BER opt      0.27    136  38 
 MRON HHZ GH   IP         2209 29.070              BER opt 50.0 0.7110  155 306 
 MRON HHN GH   ISg        2209 46.750              BER opt 90.0-0.3110  155 306 
 MRON HHN GH    IAML      2209 52.480  102.5  0.58 BER opt     -0.11    155 306 
                                                                                
