 2013 0625 1521 17.1 L   5.441  -0.578 0.00  BER  5 .50 3.4LBER                1
 GAP=261   BER  1.24       7.8     3.4 14.1  0.4800E+01  0.1347E+02  0.5708E+02E
 2013-06-25-1519-36S.NSN___015                                                 6
 OLDACT:REG 21-08-27 22:13 OP:opt  STATUS:               ID:20130625151936     3
 OLDACT:UP  21-08-28 14:16 OP:opt  STATUS:               ID:20130625151936     3
 ACTION:UP  21-08-29 20:15 OP:opt  STATUS:               ID:20130625151936     I
 OLDACT:UP  21-08-28 14:16 OP:opt  STATUS:               ID:20130625151936     3
 STAT COM NTLO IPHASE   W HHMM SS.SSS   PAR1  PAR2 AGA OPE  AIN  RES W  DIS CAZ7
 WEIJ HHZ GH   IP         1521 21.930              BER opt 90.0-0.2910 31.7  59 
 WEIJ HHN GH   ISg        1521 25.660              BER opt 90.0-0.3510 31.7  59 
 WEIJ HHN GH    IAML      1521 25.970 2334.0  0.50 BER opt     -0.44   31.7  59 
 KUKU HHZ GH   IP         1521 30.730              BER opt 90.0-0.3110 86.3  16 
 KUKU HHN GH    IAML      1521 32.470  889.0  0.12 BER opt     -0.27   86.3  16 
 KUKU HHE GH   ISg        1521 40.760              BER opt 90.0-0.5810 86.3  16 
 AKOS HHZ GH   IP         1521 36.070              BER opt 90.0-0.2110  119  37 
 AKOS HHN GH   ISg        1521 51.560              BER opt 90.0 1.1010  119  37 
 AKOS HHN GH    IAML      1521 53.060 1436.5  0.10 BER opt      0.16    119  37 
 MRON HHZ GH   IP         1521 41.320              BER opt 70.0 0.4510  148 320 
 MRON HHN GH    IAML      1521 43.370  670.5  0.10 BER opt     -0.01    148 320 
 MRON HHE GH   ISg        1521 58.470              BER opt 90.0-0.1510  148 320 
 KLEF HHZ GH   IP         1521 44.220              BER opt 50.0 0.2810  172  41 
 KLEF HHE GH   ISg        1522 05.430              BER opt 90.0 0.0610  172  41 
 KLEF HHN GH    IAML      1522 06.070 1930.0  0.28 BER opt      0.56    172  41 
                                                                                
 2013  7 4 1338 35.6 L                                                         1
 ACTION:REG 21-08-27 22:09 OP:opt  STATUS:               ID:20130704133835     I
 2013-07-04-1338-36S.NSN___015                                                 6
 STAT COM NTLO IPHASE   W HHMM SS.SSS   PAR1  PAR2 AGA OPE  AIN  RES W  DIS CAZ7
                                                                                
 2013  7 7 18 3 49.0 L                                                         1
 ACTION:REG 21-08-27 22:08 OP:opt  STATUS:               ID:20130707180349     I
 2013-07-07-1803-49S.NSN___012                                                 6
 STAT COM NTLO IPHASE   W HHMM SS.SSS   PAR1  PAR2 AGA OPE  AIN  RES W  DIS CAZ7
                                                                                
 2013  712  055 14.9 L                                                         1
 ACTION:REG 21-08-27 22:07 OP:opt  STATUS:               ID:20130712005514     I
 2013-07-12-0055-15S.NSN___015                                                 6
 STAT COM NTLO IPHASE   W HHMM SS.SSS   PAR1  PAR2 AGA OPE  AIN  RES W  DIS CAZ7
                                                                                
 2013  720 1446 54.6 L                                                         1
 ACTION:REG 21-08-27 22:06 OP:opt  STATUS:               ID:20130720144654     I
 2013-07-20-1446-55S.NSN___015                                                 6
 STAT COM NTLO IPHASE   W HHMM SS.SSS   PAR1  PAR2 AGA OPE  AIN  RES W  DIS CAZ7
                                                                                
 2013 0729 2015 03.7 L   5.525  -0.325 12.4  BER  5 .20 3.5LBER                1
 GAP=275   BER 0.490       3.3     1.4  2.0 -0.1179E+01 -0.1798E+00 -0.1606E+01E
 2013-07-29-2013-30S.NSN___015                                                 6
 OLDACT:REG 21-08-27 22:05 OP:opt  STATUS:               ID:20130729201329     3
 OLDACT:UP  21-08-28 14:27 OP:opt  STATUS:               ID:20130729201329     3
 OLDACT:UP  21-08-29 20:45 OP:opt  STATUS:               ID:20130729201329     3
 OLDACT:UP  21-08-29 20:50 OP:opt  STATUS:               ID:20130729201329     3
 ACTION:UP  21-08-29 20:51 OP:opt  STATUS:               ID:20130729201329     I
 OLDACT:UP  21-08-29 20:51 OP:opt  STATUS:               ID:20130729201329     3
 STAT COM NTLO IPHASE   W HHMM SS.SSS   PAR1  PAR2 AGA OPE  AIN  RES W  DIS CAZ7
 WEIJ HHZ GH   IP         2015 05.960              BER opt149.0-0.0510 7.05 352 
 WEIJ HHN GH   ISg        2015 07.850              BER opt149.0 0.1210 7.05 352 
 WEIJ HHE GH    IAML      2015 08.670 3868.5  0.20 BER opt     -0.68   7.05 352 
 KUKU HHZ GH   IP         2015 15.580              BER opt 91.0 0.0110 73.9 356 
 KUKU HHN GH    IAML      2015 15.650  737.0  0.20 BER opt     -0.49   73.9 356 
 AKOS HHZ GH   IP         2015 18.640              BER opt 90.0-0.2610 95.9  27 
 AKOS HHE GH   ISg        2015 30.200              BER opt 90.0 0.0410 95.9  27 
 AKOS HHN GH   ISg        2015 30.380              BER opt 90.0 0.2210 95.9  27 
 AKOS HHN GH    IAML      2015 30.530 1805.5  0.10 BER opt      0.06   95.9  27 
 KLEF HHZ GH   IP         2015 26.410              BER opt 55.0 0.2210  147  35 
 KLEF HHN GH   ISg        2015 43.440              BER opt 90.0-0.2610  147  35 
 KLEF HHN GH    IAML      2015 45.410 3708.5  0.14 BER opt      0.68    147  35 
 MRON HHE GH   ISg        2015 47.230              BER opt 90.0-0.1210  161 310 
 MRON HHT GH   ISg        2015 47.420              BER opt 90.0 0.0710  161 310 
 MRON HHN GH    IAML      2015 48.440 1731.5  0.14 BER opt      0.41    161 310 
                                                                                
 2013 0804 1713 14.9 L   7.090  -0.267 17.9  BER  5 .20 3.6LBER                1
 GAP=242   BER 0.570       3.2     1.7  7.5 -0.7409E+00  0.5154E+01 -0.1362E+02E
 2013-08-04-1711-37S.NSN___015                                                 6
 OLDACT:REG 21-08-27 22:04 OP:opt  STATUS:               ID:20130804171137     3
 OLDACT:UP  21-08-28 14:30 OP:opt  STATUS:               ID:20130804171137     3
 OLDACT:UP  21-08-28 14:30 OP:opt  STATUS:               ID:20130804171137     3
 ACTION:UP  21-08-29 20:56 OP:opt  STATUS:               ID:20130804171137     I
 OLDACT:UP  21-08-29 20:52 OP:opt  STATUS:               ID:20130804171137     3
 STAT COM NTLO IPHASE   W HHMM SS.SSS   PAR1  PAR2 AGA OPE  AIN  RES W  DIS CAZ7
 KLEF HHZ GH   IP         1713 30.170              BER opt 95.0 0.2410 94.3 124 
 KLEF HHN GH   ISg        1713 40.810              BER opt 95.0-0.2310 94.3 124 
 KLEF HHE GH    IAML      1713 47.520 1568.0  0.20 BER opt     -0.11   94.3 124 
 AKOS HHZ GH   IP         1713 30.200              BER opt 95.0 0.2610 95.1 157 
 AKOS HHN GH   ISg        1713 41.500              BER opt 95.0-0.0210 95.1 157 
 AKOS HHN GH    IAML      1713 42.310 2162.0  0.10 BER opt      0.03   95.1 157 
 KUKU HHN GH   IP         1713 30.475              BER opt 95.0-0.3610 99.9 186 
 KUKU HHE GH   ISg        1713 41.915              BER opt 95.0-0.0510 99.9 186 
 KUKU HHN GH    IAML      1713 48.450 2358.5  0.12 BER opt      0.10   99.9 186 
 MRON HHZ GH   IP         1713 37.110              BER opt 55.0-0.0310  147 242 
 MRON HHE GH   ISg        1713 53.980              BER opt 93.0 0.0110  147 242 
 MRON HHN GH    IAML      1713 55.620 1525.0  0.10 BER opt      0.18    147 242 
 WEIJ HHE GH   ISg        1714 00.140              BER opt 93.0 0.2010  166 183 
 WEIJ HHN GH    IAML      1714 02.340  494.0  0.44 BER opt     -0.21    166 183 
                                                                                
 2013  815 1651 57.1 L                                                         1
 ACTION:REG 21-08-27 22:03 OP:opt  STATUS:               ID:20130815165157     I
 2013-08-15-1651-57S.NSN___015                                                 6
 STAT COM NTLO IPHASE   W HHMM SS.SSS   PAR1  PAR2 AGA OPE  AIN  RES W  DIS CAZ7
                                                                                
 2013 0823 1257 30.0 L   5.486  -0.565 0.00  BER  5 .40 3.2LBER                1
 GAP=252   BER  1.06       7.5     2.7 11.6  0.4920E+01  0.1236E+02  0.4374E+02E
 2013-08-23-1255-54S.NSN___015                                                 6
 OLDACT:REG 21-08-27 22:02 OP:opt  STATUS:               ID:20130823125553     3
 OLDACT:UP  21-08-28 14:32 OP:opt  STATUS:               ID:20130823125553     3
 ACTION:UP  21-08-29 21:05 OP:opt  STATUS:               ID:20130823125553     I
 OLDACT:UP  21-08-28 14:32 OP:opt  STATUS:               ID:20130823125553     3
 STAT COM NTLO IPHASE   W HHMM SS.SSS   PAR1  PAR2 AGA OPE  AIN  RES W  DIS CAZ7
 WEIJ HHZ GH   IP         1257 34.050              BER opt 90.0-0.4710 28.1  66 
 WEIJ HHN GH   ISg        1257 37.780              BER opt 90.0-0.1010 28.1  66 
 WEIJ HHN GH    IAML      1257 38.340 1658.5  0.14 BER opt     -0.42   28.1  66 
 KUKU HHN GH   IP         1257 42.990              BER opt 90.0-0.0910 81.1  16 
 KUKU HHN GH    IAML      1257 44.840 1071.5  0.18 BER opt      0.00   81.1  16 
 AKOS HHZ GH   IP         1257 48.400              BER opt 90.0 0.0210  114  38 
 AKOS HHN GH   ISg        1258 02.740              BER opt 90.0 0.7610  114  38 
 AKOS HHN GH    IAML      1258 05.740  742.5  0.18 BER opt      0.07    114  38 
 MRON HHZ GH   IP         1257 53.590              BER opt 70.0 0.2810  145 318 
 MRON HHZ GH   EP         1257 53.590              BER opt 70.0 0.2810  145 318 
 MRON HHN GH   ISg        1258 10.220              BER opt 90.0-0.4810  145 318 
 MRON HHE GH    IAML      1258 14.720  306.5  0.10 BER opt     -0.14    145 318 
 KLEF HHZ GH   IP         1257 56.550              BER opt 50.0 0.3210  167  42 
 KLEF HHN GH   ISg        1258 16.420              BER opt 90.0-0.5110  167  42 
 KLEF HHN GH    IAML      1258 20.870 1009.0  0.14 BER opt      0.49    167  42 
                                                                                
 2013 0824 1925 12.2 L   5.604  -0.310 8.00  BER  4 .50 3.0LBER                1
 GAP=199   BER  1.39       5.4     4.7  5.0 -0.4802E+01 -0.1506E+01 -0.1344E+02E
 2013-08-24-1923-55S.NSN___015                                                 6
 OLDACT:REG 21-08-27 21:45 OP:opt  STATUS:               ID:20130824192355     3
 OLDACT:UP  21-08-28 14:38 OP:opt  STATUS:               ID:20130824192355     3
 ACTION:UP  21-08-29 21:09 OP:opt  STATUS:               ID:20130824192355     I
 OLDACT:UP  21-08-29 21:09 OP:opt  STATUS:               ID:20130824192355     3
 STAT COM NTLO IPHASE   W HHMM SS.SSS   PAR1  PAR2 AGA OPE  AIN  RES W  DIS CAZ7
 WEIJ HHZ GH   IP         1925 13.300              BER opt160.0-0.2810 3.07 236 
 WEIJ HHN GH   ISg        1925 14.930              BER opt160.0 0.2910 3.07 236 
 WEIJ HHN GH    IAML      1925 15.460 5962.0  0.24 BER opt     -0.26   3.07 236 
 KUKU HHZ GH   IP         1925 22.920              BER opt 97.0 0.1310 65.4 354 
 KUKU HHE GH   ISg        1925 31.410              BER opt 97.0 0.7510 65.4 354 
 KUKU HHN GH    IAML      1925 36.060  671.0  0.12 BER opt     -0.12   65.4 354 
 AKOS HHN GH    IAML      1925 28.010  395.0  0.18 BER opt     -0.17   87.5  29 
 KLEF HHZ GH   IP         1925 33.830              BER opt 50.0-0.2810  139  37 
 KLEF HHN GH   ISg        1925 50.880              BER opt 93.0-0.4310  139  37 
 KLEF HHN GH    IAML      1925 53.420  870.0  0.12 BER opt      0.49    139  37 
 MRON HHZ GH   IP         1925 37.000      D       BER opt 50.0 0.6910  157 307 
 MRON HHN GH   ISg        1925 55.390      D       BER opt 93.0-0.8710  157 307 
 MRON HHE GH    IAML      1925 56.810  248.5  0.14 BER opt      0.04    157 307 
                                                                                
 2013 0831 1232 11.5 L   5.503  -0.556 0.10  BER  5 .30 3.5LBER                1
 GAP=249   BER 0.940       5.7     2.3 10.2  0.1836E+01  0.7409E+01  0.2590E+02E
 2013-08-31-1230-35S.NSN___015                                                 6
 OLDACT:REG 21-08-27 21:43 OP:opt  STATUS:               ID:20130831123034     3
 OLDACT:UP  21-08-28 14:40 OP:opt  STATUS:               ID:20130831123034     3
 OLDACT:UP  21-08-28 14:40 OP:opt  STATUS:               ID:20130831123034     3
 OLDACT:UP  21-08-28 14:41 OP:opt  STATUS:               ID:20130831123034     3
 OLDACT:UP  21-08-28 14:41 OP:opt  STATUS:               ID:20130831123034     3
 ACTION:UP  21-08-29 21:13 OP:opt  STATUS:               ID:20130831123034     I
 OLDACT:UP  21-08-29 21:12 OP:opt  STATUS:               ID:20130831123034     3
 STAT COM NTLO IPHASE   W HHMM SS.SSS   PAR1  PAR2 AGA OPE  AIN  RES W  DIS CAZ7
 WEIJ HHZ GH   IP         1232 15.500              BER opt 91.0-0.2410 26.4  69 
 WEIJ HHN GH   ISg        1232 19.040              BER opt 91.0 0.1510 26.4  69 
 WEIJ HHN GH    IAML      1232 19.460 4395.5  0.18 BER opt     -0.30   26.4  69 
 WEIJ HHE GH    IAML      1232 19.530 3235.0  0.16 BER opt     -0.43   26.4  69 
 KUKU HHZ GH   IP         1232 24.220              BER opt 90.0-0.0110 79.0  15 
 AKOS HHZ GH   IP         1232 29.560              BER opt 90.0 0.0310  112  38 
 AKOS HHE GH    IAML      1232 30.990 1132.0  0.10 BER opt     -0.03    112  38 
 AKOS HHN GH   ISg        1232 43.770              BER opt 90.0 0.9010  112  38 
 AKOS HHN GH    IAML      1232 51.950 1547.5  0.10 BER opt      0.11    112  38 
 MRON HHZ GH   IP         1232 34.700              BER opt 70.0-0.0010  144 318 
 MRON HHN GH   ISg        1232 51.950              BER opt 90.0-0.0510  144 318 
 MRON HHN GH    IAML      1232 56.210  821.0  0.10 BER opt      0.01    144 318 
 KLEF HHZ GH   IP         1232 37.710              BER opt 50.0 0.2510  165  42 
 KLEF HHT GH   ISg        1232 57.330              BER opt 90.0-0.5010  165  42 
 KLEF HHE GH   ISg        1232 57.550              BER opt 90.0-0.2810  165  42 
 KLEF HHN GH   ISg        1232 57.580              BER opt 90.0-0.2510  165  42 
 KLEF HHN GH    IAML      1232 59.560 2743.0  0.14 BER opt      0.64    165  42 
                                                                                
 2013 0918 1235 48.8 L   5.374  -0.486 15.0  BER  5 .70 3.6LBER                1
 GAP=282   BER  1.97      14.5    10.8 22.2 -0.4000E+02  0.8710E+02  0.1697E+03E
 2013-09-18-1234-08S.NSN___015                                                 6
 OLDACT:REG 21-08-27 21:42 OP:opt  STATUS:               ID:20130918123407     3
 OLDACT:UP  21-08-28 14:44 OP:opt  STATUS:               ID:20130918123407     3
 OLDACT:UP  21-08-28 14:44 OP:opt  STATUS:               ID:20130918123407     3
 OLDACT:UP  21-08-29 21:14 OP:opt  STATUS:               ID:20130918123407     3
 OLDACT:UP  21-08-29 21:14 OP:opt  STATUS:               ID:20130918123407     3
 ACTION:UP  21-08-29 21:17 OP:opt  STATUS:               ID:20130918123407     I
 OLDACT:UP  21-08-29 21:15 OP:opt  STATUS:               ID:20130918123407     3
 STAT COM NTLO IPHASE   W HHMM SS.SSS   PAR1  PAR2 AGA OPE  AIN  RES W  DIS CAZ7
 WEIJ HHZ GH   IP         1235 53.390              BER opt112.0-0.6210 29.1  35 
 WEIJ HHN GH   ISg        1235 57.140              BER opt112.0-0.7410 29.1  35 
 WEIJ HHN GH    IAML      1235 57.530 3674.5  0.22 BER opt     -0.35   29.1  35 
 KUKU HHZ GH   IP         1236 02.100              BER opt 93.0-1.2310 91.4   8 
 KUKU HHN GH    IAML      1236 02.820 1433.0  0.18 BER opt     -0.15   91.4   8 
 KUKU HHZ GH   ISg        1236 14.760              BER opt 93.0 0.6810 91.4   8 
 AKOS HHZ GH   IP         1236 07.610              BER opt 92.0 0.0810  119  31 
 AKOS HHN GH   ISg        1236 21.650              BER opt 92.0 0.2510  119  31 
 AKOS HHE GH    IAML      1236 28.530 1085.0  0.24 BER opt     -0.09    119  31 
 MRON HHZ GH   IP         1236 12.660              BER opt 55.0-0.0010  160 319 
 MRON HHN GH    IAML      1236 34.170  720.5  0.28 BER opt     -0.05    160 319 
 KLEF HHZ GH   IP         1236 15.620              BER opt 55.0 1.5810  171  37 
 KLEF HHE GH   ISg        1236 34.900              BER opt 91.0-0.2210  171  37 
 KLEF HHN GH   ISg        1236 35.350              BER opt 91.0 0.2310  171  37 
 KLEF HHN GH    IAML      1236 39.150 3136.5  0.14 BER opt      0.64    171  37 
                                                                                
 2013 10 1  353 19.4 L                                                         1
 ACTION:REG 21-08-27 21:41 OP:opt  STATUS:               ID:20131001035319     I
 2013-10-01-0353-19S.NSN___015                                                 6
 STAT COM NTLO IPHASE   W HHMM SS.SSS   PAR1  PAR2 AGA OPE  AIN  RES W  DIS CAZ7
                                                                                
 2013 1001 1809 09.7 L   5.469  -0.541 0.00  BER  5 .70 3.3LBER                1
 GAP=258   BER  1.88      11.5     5.0 21.0  0.9934E+01  0.2868E+02  0.1234E+03E
 2013-10-01-1807-14S.NSN___015                                                 6
 OLDACT:REG 21-08-27 21:40 OP:opt  STATUS:               ID:20131001180714     3
 OLDACT:UP  21-08-28 14:51 OP:opt  STATUS:               ID:20131001180714     3
 OLDACT:UP  21-08-28 14:51 OP:opt  STATUS:               ID:20131001180714     3
 ACTION:UP  21-08-29 21:18 OP:opt  STATUS:               ID:20131001180714     I
 OLDACT:UP  21-08-28 14:51 OP:opt  STATUS:               ID:20131001180714     3
 STAT COM NTLO IPHASE   W HHMM SS.SSS   PAR1  PAR2 AGA OPE  AIN  RES W  DIS CAZ7
 WEIJ HHZ GH   IP         1809 14.250              BER opt 90.0 0.2710 26.5  60 
 WEIJ HHN GH   ISg        1809 17.000              BER opt 90.0-0.1510 26.5  60 
 WEIJ HHN GH    IAML      1809 17.450 2702.5  0.22 BER opt     -0.32   26.5  60 
 KUKU HHZ GH   IP         1809 22.390              BER opt 90.0-0.5810 82.3  13 
 KUKU HHN GH    IAML      1809 23.440  836.0  0.10 BER opt     -0.18   82.3  13 
 KUKU HHN GH   ISg        1809 34.220              BER opt 90.0 1.4310 82.3  13 
 AKOS HHZ GH   IP         1809 27.840              BER opt 90.0-0.2310  114  36 
 AKOS HHN GH   ISg        1809 41.680              BER opt 90.0 0.0210  114  36 
 AKOS HHN GH    IAML      1809 49.570  771.0  0.10 BER opt      0.01    114  36 
 MRON HHN GH   IP         1809 34.360              BER opt 70.0 0.8510  148 318 
 MRON HHN GH   ISg        1809 50.350              BER opt 90.0-0.9510  148 318 
 KLEF HHZ GH   IP         1809 36.160              BER opt 50.0 0.2610  167  41 
 KLEF HHN GH   ISg        1809 55.610              BER opt 90.0-0.9310  167  41 
 KLEF HHN GH    IAML      1809 59.160 1181.0  0.56 BER opt      0.48    167  41 
                                                                                
 2013 10 5 1646 53.7 L                                                         1
 ACTION:REG 21-08-27 21:39 OP:opt  STATUS:               ID:20131005164653     I
 2013-10-05-1646-54S.NSN___015                                                 6
 STAT COM NTLO IPHASE   W HHMM SS.SSS   PAR1  PAR2 AGA OPE  AIN  RES W  DIS CAZ7
                                                                                
 2013 1012 1316 46.0 L                                                         1
 ACTION:REG 21-08-27 21:38 OP:opt  STATUS:               ID:20131012131646     I
 2013-10-12-1316-46S.NSN___015                                                 6
 STAT COM NTLO IPHASE   W HHMM SS.SSS   PAR1  PAR2 AGA OPE  AIN  RES W  DIS CAZ7
                                                                                
