 2013 0116 1813 20.8 L   5.437  -0.390 3.80  BER  2 .00 2.6LBER                1
 GAP=345   BER 0.340       7.7     7.7  5.9 -0.4968E+02 -0.3190E+02  0.4039E+02E
 2013-01-16-1811-31S.NSN___018                                                 6
 ACTION:UP  21-08-29 17:35 OP:opt  STATUS:               ID:20130116181130     I
 OLDACT:REG 21-08-27 22:33 OP:opt  STATUS:               ID:20130116181130     3
 STAT COM NTLO IPHASE   W HHMM SS.SSS   PAR1  PAR2 AGA OPE  AIN  RES W  DIS CAZ7
 WEIJ HHZ GH   IP         1813 23.790              BER opt103.0-0.0010 17.9  21 
 WEIJ HHN GH   ISg        1813 25.980              BER opt103.0-0.0010 17.9  21 
 WEIJ HHN GH    IAML      1813 26.350 1202.5  0.40 BER opt     -0.19   17.9  21 
 SHAI HHN GH    IAML      1813 36.050  253.0  0.18 BER opt     -0.09   74.7  42 
 KUKU HHN GH    IAML      1813 32.760  331.5  0.10 BER opt      0.10   83.5   2 
 KLEF HHZ GH   IP         1813 45.710              BER opt 50.0 0.0010  159  35 
 KLEF HHN GH   ISg        1814 05.580              BER opt 91.0 0.0010  159  35 
 KLEF HHE GH    IAML      1814 05.770  135.5  0.20 BER opt      0.17    159  35 
                                                                                
 2013 0121 1305 45.4 L   6.784   1.152 15.0  BER  5 1.2 3.7LBER                1
 GAP=335   BER  3.02      33.8    39.9 47.5 -0.6831E+03 -0.1622E+04  0.3827E+03E
 2013-01-21-1304-20S.NSN___018                                                 6
 OLDACT:REG 21-08-27 22:32 OP:opt  STATUS:               ID:20130121130420     3
 OLDACT:UP  21-08-28 13:35 OP:opt  STATUS:               ID:20130121130420     3
 OLDACT:UP  21-08-28 13:35 OP:opt  STATUS:               ID:20130121130420     3
 OLDACT:UP  21-08-29 18:14 OP:opt  STATUS:               ID:20130121130420     3
 ACTION:UP  21-08-29 18:14 OP:opt  STATUS:               ID:20130121130420     I
 OLDACT:UP  21-08-29 18:14 OP:opt  STATUS:               ID:20130121130420     3
 STAT COM NTLO IPHASE   W HHMM SS.SSS   PAR1  PAR2 AGA OPE  AIN  RES W  DIS CAZ7
 KLEF HHZ GH   IP         1305 57.120              BER opt 94.0-1.1910 80.9 257 
 KLEF HHN GH    IAML      1306 00.810 2772.0  0.24 BER opt     -0.03   80.9 257 
 AKOS HHZ GH   IP         1306 04.940              BER opt 55.0-0.7010  131 246 
 AKOS HHE GH   ISg        1306 23.240              BER opt 92.0 2.0610  131 246 
 AKOS HHN GH    IAML      1306 24.020 4656.0  0.12 BER opt      0.52    131 246 
 SHAI HHZ GH   IP         1306 07.750              BER opt 55.0-0.5210  153 232 
 SHAI HHE GH    IAML      1306 28.470  986.0  0.26 BER opt     -0.04    153 232 
 KUKU HHZ GH   IP         1306 12.530              BER opt 55.0 0.7810  180 249 
 KUKU HHN GH   ISg        1306 33.290              BER opt 91.0-0.8410  180 249 
 KUKU HHN GH    IAML      1306 35.850  503.0  0.12 BER opt     -0.20    180 249 
 WEIJ HHZ GH   IP         1306 16.990              BER opt 55.0 1.4610  211 231 
 WEIJ HHN GH    IAML      1306 18.220  340.5  0.18 BER opt     -0.24    211 231 
 WEIJ HHN GH   ISg        1306 41.100              BER opt 91.0-1.0510  211 231 
                                                                                
 2013 0212 1748 02.5 L   5.462  -0.546 0.00  BER  5 .40 2.8LBER                1
 GAP=259   BER  1.08       6.7     3.0 11.9  0.5782E+01  0.1086E+02  0.3846E+02E
 2013-02-12-1746-27S.NSN___018                                                 6
 OLDACT:REG 21-08-27 22:32 OP:opt  STATUS:               ID:20130212174626     3
 OLDACT:UP  21-08-28 13:42 OP:opt  STATUS:               ID:20130212174626     3
 OLDACT:UP  21-08-29 18:16 OP:opt  STATUS:               ID:20130212174626     3
 OLDACT:UP  21-08-29 18:16 OP:opt  STATUS:               ID:20130212174626     3
 ACTION:UP  21-08-29 18:18 OP:opt  STATUS:               ID:20130212174626     I
 OLDACT:UP  21-08-29 18:17 OP:opt  STATUS:               ID:20130212174626     3
 STAT COM NTLO IPHASE   W HHMM SS.SSS   PAR1  PAR2 AGA OPE  AIN  RES W  DIS CAZ7
 WEIJ HHZ GH   IP         1748 06.870              BER opt 90.0-0.0010 27.4  59 
 WEIJ HHN GH   ISg        1748 10.020              BER opt 90.0-0.1210 27.4  59 
 WEIJ HHN GH    IAML      1748 23.090 1352.5  0.18 BER opt     -0.14   27.4  59 
 KUKU HHZ GH   IP         1748 15.225              BER opt 90.0-0.5710 83.1  14 
 KUKU HHN GH   ISg        1748 24.435              BER opt 90.0 0.6110 83.1  14 
 SHAI HHZ GH   IP         1748 16.180              BER opt 90.0-0.0610 85.5  52 
 MRON HHZ GH   IP         1748 26.950              BER opt 70.0 0.6510  148 318 
 MRON HHN GH    IAML      1748 29.290  239.0  0.10 BER opt      0.15    148 318 
 MRON HHE GH   ISg        1748 43.110              BER opt 90.0-0.5210  148 318 
 KLEF HHZ GH   IP         1748 28.950              BER opt 50.0 0.1810  168  41 
 KLEF HHN GH   ISg        1748 49.390              BER opt 90.0-0.1610  168  41 
                                                                                
 2013 0316 1758 34.8 L   5.555  -0.527 0.00  BER  4 .10 3.0LBER                1
 GAP=235   BER 0.440       3.0     1.3  4.6  0.2027E+01  0.1941E+01  0.3552E+01E
 2013-03-16-1756-58S.NSN___018_SEI                                             6
 OLDACT:REG 21-08-27 22:30 OP:opt  STATUS:               ID:20130316175657     3
 OLDACT:UP  21-08-28 13:45 OP:opt  STATUS:               ID:20130316175657     3
 ACTION:UP  21-08-29 18:35 OP:opt  STATUS:               ID:20130316175657     I
 OLDACT:UP  21-08-29 18:28 OP:opt  STATUS:               ID:20130316175657     3
 STAT COM NTLO IPHASE   W HHMM SS.SSS   PAR1  PAR2 AGA OPE  AIN  RES W  DIS CAZ7
 WEIJ HHZ GH   IP         1758 38.160              BER opt 91.0-0.1710 21.7  80 
 WEIJ HHN GH    IAML      1758 38.680 1019.5  0.12 BER opt     -0.54   21.7  80 
 WEIJ HHN GH   ISg        1758 41.030              BER opt 91.0 0.1010 21.7  80 
 KUKU HHN GH    IAML      1758 59.420  722.0  0.16 BER opt     -0.01   72.6  14 
 SHAI HHZ GH   IP         1758 47.230              BER opt 90.0-0.1410 77.7  57 
 SHAI HHN GH    IAML      1759 01.800  523.5  0.14 BER opt     -0.11   77.7  57 
 MRON HHZ GH   IP         1758 57.950              BER opt 70.0 0.2010  142 315 
 MRON HHE GH   ISg        1759 14.660              BER opt 90.0-0.1310  142 315 
 MRON HHN GH    IAML      1759 18.990  341.0  0.10 BER opt      0.12    142 315 
 KLEF HHZ GH   IP         1759 00.120              BER opt 50.0 0.1110  159  42 
 KLEF HHN GH    IAML      1759 01.340  729.5  0.10 BER opt      0.54    159  42 
 KLEF HHT GH   ISg        1759 19.390              BER opt 90.0 0.0310  159  42 
                                                                                
 2013 0318 2105 54.1 L   5.591  -0.264 11.0  BER  4 .10 3.2LBER                1
 GAP=224   BER 0.350       2.7     2.8  4.4 -0.4013E+01 -0.7520E+01 -0.2693E+01E
 2013-03-18-2103-56S.NSN___018                                                 6
 OLDACT:REG 21-08-27 22:27 OP:opt  STATUS:               ID:20130318210356     3
 OLDACT:UP  21-08-28 13:47 OP:opt  STATUS:               ID:20130318210356     3
 ACTION:UP  21-08-29 18:39 OP:opt  STATUS:               ID:20130318210356     I
 OLDACT:UP  21-08-29 18:38 OP:opt  STATUS:               ID:20130318210356     3
 STAT COM NTLO IPHASE   W HHMM SS.SSS   PAR1  PAR2 AGA OPE  AIN  RES W  DIS CAZ7
 WEIJ HHZ GH   IP         2105 56.260              BER opt146.0-0.1310 7.67 268 
 WEIJ HHN GH    IAML      2105 57.93012884.5  0.10 BER opt      0.14   7.67 268 
 WEIJ HHE GH    IAML      2105 57.97010412.5  0.20 BER opt      0.04   7.67 268 
 WEIJ HHN GH   ISg        2105 57.970              BER opt146.0 0.0810 7.67 268 
 SHAI HHZ GH   IP         2106 02.890              BER opt102.0 0.1110 52.7  43 
 SHAI HHN GH   ISg        2106 09.150              BER opt102.0-0.0510 52.7  43 
 SHAI HHT GH   ISg        2106 09.160              BER opt102.0-0.0410 52.7  43 
 SHAI HHN GH    IAML      2106 09.680 1447.0  0.12 BER opt     -0.07   52.7  43 
 KUKU HHN GH    IAML      2106 20.140  516.5  0.16 BER opt     -0.37   67.5 350 
 AKOS HHE GH   ISg        2106 18.530              BER opt 97.0-0.1110 86.4  25 
 KLEF HHN GH   ISg        2106 32.870              BER opt 95.0 0.0810  137  35 
 KLEF HHN GH    IAML      2106 35.080  707.5  0.20 BER opt      0.23    137  35 
                                                                                
 2013 0330 1743 41.5 L   5.454  -0.501 0.00  BER  4 .60 3.1LBER                1
 GAP=319   BER  1.56      10.5     9.8 18.7  0.1630E+02  0.5254E+02  0.8747E+02E
 2013-03-30-1741-54S.NSN___018                                                 6
 OLDACT:REG 21-08-27 22:25 OP:opt  STATUS:               ID:20130330174154     3
 OLDACT:UP  21-08-28 13:48 OP:opt  STATUS:               ID:20130330174154     3
 OLDACT:UP  21-08-28 13:48 OP:opt  STATUS:               ID:20130330174154     3
 ACTION:UP  21-08-29 18:53 OP:opt  STATUS:               ID:20130330174154     I
 OLDACT:UP  21-08-29 18:51 OP:opt  STATUS:               ID:20130330174154     3
 STAT COM NTLO IPHASE   W HHMM SS.SSS   PAR1  PAR2 AGA OPE  AIN  RES W  DIS CAZ7
 WEIJ HHZ GH   IP         1743 45.860              BER opt 91.0 0.4810 23.8  51 
 WEIJ HHN GH   ISg        1743 48.560              BER opt 91.0 0.3410 23.8  51 
 WEIJ HHN GH    IAML      1743 48.910 1912.0  0.36 BER opt     -0.38   23.8  51 
 SHAI HHZ GH   IP         1743 54.780              BER opt 90.0-0.0210 82.2  49 
 SHAI HHN GH    IAML      1744 10.900  669.0  0.20 BER opt     -0.12   82.2  49 
 KUKU HHZ GH   IP         1743 54.060              BER opt 90.0-0.8710 83.0  10 
 KUKU HHZ GH   ISg        1744 05.590              BER opt 90.0 0.7610 83.0  10 
 KUKU HHN GH    IAML      1744 09.200  567.5  0.12 BER opt     -0.19   83.0  10 
 AKOS HHE GH    IAML      1744 01.290  496.0  0.22 BER opt     -0.04    113  34 
 MRON HHE GH    IAML      1744 26.150  432.0  0.12 BER opt      0.11    152 317 
 KLEF HHZ GH   IP         1744 07.780              BER opt 50.0 0.2310  165  39 
 KLEF HHN GH    IAML      1744 08.180 1172.0  0.10 BER opt      0.61    165  39 
 KLEF HHN GH   ISg        1744 27.020              BER opt 90.0-0.9210  165  39 
                                                                                
 2013 0503 0331 46.3 L   5.547  -0.298 13.0  BER  4 .50 2.6LBER                1
 GAP=277   BER  1.40       9.3     5.9  9.8  0.1192E+02 -0.3197E+02 -0.6101E+02E
 2013-05-03-0330-13S.NSN___018                                                 6
 OLDACT:REG 21-08-27 22:24 OP:opt  STATUS:               ID:20130503033013     3
 OLDACT:UP  21-08-28 14:04 OP:opt  STATUS:               ID:20130503033013     3
 OLDACT:UP  21-08-28 14:04 OP:opt  STATUS:               ID:20130503033013     3
 OLDACT:UP  21-08-28 14:05 OP:opt  STATUS:               ID:20130503033013     3
 OLDACT:UP  21-08-28 14:05 OP:opt  STATUS:               ID:20130503033013     3
 OLDACT:UP  21-08-29 18:55 OP:opt  STATUS:               ID:20130503033013     3
 ACTION:UP  21-08-29 18:57 OP:opt  STATUS:               ID:20130503033013     I
 OLDACT:UP  21-08-29 18:56 OP:opt  STATUS:               ID:20130503033013     3
 STAT COM NTLO IPHASE   W HHMM SS.SSS   PAR1  PAR2 AGA OPE  AIN  RES W  DIS CAZ7
 WEIJ HHZ GH   IP         0331 48.680              BER opt154.0 0.0610 6.10 320 
 WEIJ HHE GH   ISg        0331 50.350              BER opt154.0 0.0110 6.10 320 
 WEIJ HHN GH    IAML      0331 50.800 3327.5  0.14 BER opt      0.17   6.10 320 
 SHAI HHE GH   IP         0331 55.630              BER opt 92.0-0.2410 58.8  43 
 SHAI HHT GH   ISg        0332 02.430              BER opt 92.0-0.5310 58.8  43 
 SHAI HHN GH   ISg        0332 02.490              BER opt 92.0-0.4710 58.8  43 
 SHAI HHN GH    IAML      0332 02.530  268.0  0.18 BER opt     -0.14   58.8  43 
 KUKU HHZ GH   IP         0331 58.140              BER opt 91.0 0.2810 71.8 354 
 KUKU HHE GH   ISg        0332 06.190              BER opt 91.0-0.2210 71.8 354 
 KUKU HHT GH   ISg        0332 06.200              BER opt 91.0-0.2110 71.8 354 
 KUKU HHN GH    IAML      0332 07.470  114.0  0.18 BER opt     -0.40   71.8 354 
 KLEF HHN GH   ISg        0332 26.670              BER opt 90.0 1.3410  144  35 
 KLEF HHN GH    IAML      0332 30.640  235.5  0.10 BER opt      0.38    144  35 
                                                                                
 2013 0516 1913 35.5 L   5.489  -0.555 0.00  BER  3 .20 2.9LBER                1
 GAP=252   BER 0.550       5.3     2.6  7.5 -0.6844E+00  0.1110E+02  0.8385E+01E
 2013-05-16-1911-59S.NSN___018_SEI                                             6
 OLDACT:REG 21-08-27 22:23 OP:opt  STATUS:               ID:20130516191158     3
 OLDACT:UP  21-08-28 14:07 OP:opt  STATUS:               ID:20130516191158     3
 ACTION:UP  21-08-28 14:07 OP:opt  STATUS:               ID:20130516191158     I
 STAT COM NTLO IPHASE   W HHMM SS.SSS   PAR1  PAR2 AGA OPE  AIN  RES W  DIS CAZ7
 WEIJ HHZ GH   IP         1913 39.550              BER opt 90.0-0.2910 26.9  66 
 WEIJ HHN GH   ISg        1913 43.250              BER opt 90.0 0.2110 26.9  66 
 WEIJ HHN GH    IAML      1913 43.920  699.0  0.18 BER opt     -0.49   26.9  66 
 SHAI HHN GH    IAML      1914 05.950  375.0  0.20 BER opt     -0.10   84.5  54 
 MRON HHZ GH   IP         1913 58.930              BER opt 70.0 0.0310  146 318 
 KLEF HHZ GH   IP         1914 01.890              BER opt 50.0 0.1710  166  41 
 KLEF HHN GH   ISg        1914 22.030              BER opt 90.0-0.1110  166  41 
 KLEF HHN GH    IAML      1914 23.720  616.0  0.12 BER opt      0.60    166  41 
 KLEF HHE GH    IAML      1914 28.957  383.5  0.12 BER opt                      
 MRON HHN GH    IAML      1913 59.527  158.0  0.80 BER opt                      
                                                                                
 2013 0518 1816 51.1 L   5.563  -0.525 0.10  BER  6 .20 3.2LBER                1
 GAP=232   BER 0.670       4.4     2.0  6.7  0.4641E+01  0.4479E+01  0.7880E+01E
 2013-05-18-1814-54S.NSN___018                                                 6
 ACTION:UP  21-08-29 19:50 OP:opt  STATUS:               ID:20130518181454     I
 OLDACT:REG 21-08-29 19:45 OP:opt  STATUS:               ID:20130518181454     3
 STAT COM NTLO IPHASE   W HHMM SS.SSS   PAR1  PAR2 AGA OPE  AIN  RES W  DIS CAZ7
 WEIJ HHZ GH   IP         1816 54.370              BER opt 91.0-0.1510 21.5  82 
 WEIJ HHE GH   ISg        1816 57.080              BER opt 91.0-0.0010 21.5  82 
 WEIJ HHN GH    IAML      1816 57.620 2862.5  0.28 BER opt     -0.28   21.5  82 
 KUKU HHZ GH   IP         1817 02.580              BER opt 90.0-0.0510 71.7  14 
 KUKU HHN GH    IAML      1817 15.850  570.0  0.16 BER opt     -0.31   71.7  14 
 SHAI HHZ GH   EP         1817 03.370      C       BER opt 90.0-0.1410 77.2  58 
 SHAI HHZ GH   IP         1817 03.370      C       BER opt 90.0-0.1410 77.2  58 
 SHAI HHN GH    IAML      1817 21.710  781.0  0.20 BER opt     -0.13   77.2  58 
 AKOS HHZ GH   IP         1817 07.890              BER opt 90.0-0.0310  105  39 
 AKOS HHN GH    IAML      1817 10.140  755.0  0.10 BER opt      0.06    105  39 
 MRON HHZ GH   IP         1817 14.460              BER opt 70.0 0.5610  142 315 
 MRON HHE GH   ISg        1817 30.500              BER opt 90.0-0.3810  142 315 
 MRON HHN GH    IAML      1817 34.950  496.5  0.70 BER opt      0.09    142 315 
 KLEF HHZ GH   IP         1817 16.270              BER opt 50.0 0.1210  158  43 
 KLEF HHN GH   ISg        1817 35.600              BER opt 90.0 0.2110  158  43 
 KLEF HHN GH    IAML      1817 37.870 1204.0  0.12 BER opt      0.56    158  43 
                                                                                
 2013 0525 0315 09.4 L   5.568  -0.300 2.60  BER  6 3.0 3.3LBER                1
 GAP=257   BER  8.10      39.8    19.6 41.4 -0.3574E+03 -0.2841E+03  0.2451E+03E
 2013-05-25-0313-34S.NSN___018                                                 6
 OLDACT:REG 21-08-27 22:20 OP:opt  STATUS:               ID:20130525031333     3
 OLDACT:UP  21-08-28 14:12 OP:opt  STATUS:               ID:20130525031333     3
 OLDACT:UP  21-08-28 14:12 OP:opt  STATUS:               ID:20130525031333     3
 OLDACT:UP  21-08-28 14:12 OP:opt  STATUS:               ID:20130525031333     3
 OLDACT:UP  21-08-29 19:55 OP:opt  STATUS:               ID:20130525031333     3
 OLDACT:UP  21-08-29 19:57 OP:opt  STATUS:               ID:20130525031333     3
 ACTION:UP  21-08-29 20:01 OP:opt  STATUS:               ID:20130525031333     I
 OLDACT:UP  21-08-29 20:00 OP:opt  STATUS:               ID:20130525031333     3
 STAT COM NTLO IPHASE   W HHMM SS.SSS   PAR1  PAR2 AGA OPE  AIN  RES W  DIS CAZ7
 WEIJ HHZ GH   IP         0315 09.400              BER opt123.0-0.8510 4.35 302 
 WEIJ HHN GH   ISg        0315 10.600              BER opt123.0-0.2710 4.35 302 
 WEIJ HHN GH    IAML      0315 10.68042355.5  0.12 BER opt      0.07   4.35 302 
 SHAI HHZ GH   IP         0315 17.700              BER opt 93.0-0.9610 57.3  44 
 SHAI HHN GH   ISg        0315 24.710              BER opt 93.0-0.8010 57.3  44 
 SHAI HHN GH    IAML      0315 29.710 1164.5  0.16 BER opt     -0.22   57.3  44 
 KUKU HHZ GH   IP         0315 19.650              BER opt 92.0-0.9810 69.5 354 
 KUKU HHE GH   ISg        0315 28.260              BER opt 92.0-0.6710 69.5 354 
 KUKU HHN GH   IP         0315 31.360              BER opt 92.0 10.710 69.5 354 
 KUKU HHN GH    IAML      0315 33.740 1362.5  0.12 BER opt     -0.04   69.5 354 
 AKOS HHZ GH   IP         0315 23.020              BER opt 92.0-0.9910 90.5  27 
 AKOS HHE GH   ISg        0315 35.030              BER opt 92.0 0.2110 90.5  27 
 AKOS HHN GH    IAML      0315 40.120  640.5  0.10 BER opt     -0.20   90.5  27 
 KLEF HHZ GH   IP         0315 31.020              BER opt 70.0-1.0810  142  35 
 KLEF HHE GH   ISg        0315 48.410              BER opt 91.0-0.8110  142  35 
 KLEF HHN GH   ISg        0315 48.720              BER opt 91.0-0.5010  142  35 
 KLEF HHN GH    IAML      0315 49.950 1222.0  0.10 BER opt      0.39    142  35 
 MRON HHZ GH   IP         0315 34.120              BER opt 50.0-0.4110  160 308 
 MRON HHN GH   ISg        0315 51.770              BER opt 91.0-2.6310  160 308 
 MRON HHN GH    IAML      0315 54.780  391.0  0.22 BER opt     -0.01    160 308 
                                                                                
 2013 0616 0751 35.3 L   5.448  -0.338 1.00  BER  3 .00 2.7LBER                1
 GAP=328   BER 0.300       2.9     2.4  4.3 -0.2417E+01 -0.3395E+01  0.9062E+01E
 2013-06-16-0749-38S.NSN___015                                                 6
 OLDACT:REG 21-08-27 22:14 OP:opt  STATUS:               ID:20130616074937     3
 ACTION:UP  21-08-29 20:12 OP:opt  STATUS:               ID:20130616074937     I
 OLDACT:UP  21-08-29 20:07 OP:opt  STATUS:               ID:20130616074937     3
 STAT COM NTLO IPHASE   W HHMM SS.SSS   PAR1  PAR2 AGA OPE  AIN  RES W  DIS CAZ7
 WEIJ HHZ GH   IP         0751 37.800              BER opt 94.0 0.0110 15.5   2 
 WEIJ HHE GH   ISg        0751 39.630              BER opt 94.0-0.0210 15.5   2 
 WEIJ HHN GH    IAML      0751 40.050 2474.5  0.14 BER opt     -0.03   15.5   2 
 AKOS HHZ GH   IP         0751 52.090              BER opt 91.0 0.0010  104  26 
 AKOS HHN GH    IAML      0751 53.890  239.0  0.12 BER opt      0.03    104  26 
 AKOS HHE GH   ISg        0752 04.600              BER opt 91.0 0.0710  104  26 
 KLEF HHZ GH   IP         0751 59.910              BER opt 50.0-0.0010  155  34 
 KLEF HHN GH   ISg        0752 18.760              BER opt 90.0-0.0510  155  34 
                                                                                
