 2012 1009 1205 47.5 L   5.631  -0.289 3.40  BER  5 .50 2.9LBER                1
 GAP=177   BER  1.34       4.2     3.4  8.4 -0.6081E+01  0.6370E+00 -0.1746E+02E
 2012-10-09-1204-13S.NSN___018                                                 6
 OLDACT:REG 21-08-27 22:51 OP:opt  STATUS:               ID:20121009120412     3
 OLDACT:UP  21-08-28 21:39 OP:opt  STATUS:               ID:20121009120412     3
 OLDACT:UP  21-08-28 21:40 OP:opt  STATUS:               ID:20121009120412     3
 OLDACT:UP  21-08-28 21:40 OP:opt  STATUS:               ID:20121009120412     3
 ACTION:UP  21-08-28 21:52 OP:opt  STATUS:               ID:20121009120412     I
 OLDACT:UP  21-08-28 21:40 OP:opt  STATUS:               ID:20121009120412     3
 STAT COM NTLO IPHASE   W HHMM SS.SSS   PAR1  PAR2 AGA OPE  AIN  RES W  DIS CAZ7
 WEIJ HHZ GH   IP         1205 48.500              BER opt118.0-0.2610 6.77 226 
 WEIJ HHN GH   ISg        1205 50.090              BER opt118.0 0.4210 6.77 226 
 WEIJ HHN GH    IAML      1205 50.530 5797.5  0.16 BER opt     -0.21   6.77 226 
 SHAI HHZ GH   IP         1205 55.420              BER opt 94.0-0.4510 51.6  49 
 SHAI HHN GH   ISg        1206 02.080              BER opt 94.0 0.0310 51.6  49 
 SHAI HHN GH    IAML      1206 02.330 1090.5  0.18 BER opt      0.08   51.6  49 
 SHAI HHE GH    IAML      1206 02.480  840.0  0.24 BER opt     -0.04   51.6  49 
 KUKU HHZ GH   IP         1205 57.850              BER opt 93.0 0.2010 62.7 352 
 KUKU HHN GH   ISg        1206 05.850              BER opt 93.0 0.7110 62.7 352 
 KUKU HHN GH    IAML      1206 09.100  692.5  0.12 BER opt     -0.01   62.7 352 
 KLEF HHZ GH   IP         1206 08.730              BER opt 70.0-0.4710  135  37 
 KLEF HHE GH    IAML      1206 09.940  159.0  0.10 BER opt     -0.14    135  37 
 KLEF HHE GH   ISg        1206 25.670              BER opt 92.0 0.1210  135  37 
 MRON HHZ GH   IP         1206 12.790              BER opt 50.0 0.6410  157 306 
 MRON HHE GH   ISg        1206 30.640              BER opt 91.0-0.9510  157 306 
 MRON HHN GH    IAML      1206 32.270  359.5  0.16 BER opt      0.33    157 306 
                                                                                
 2012 1019 0838 29.4 L   5.627  -0.327 5.90  BER  5 .50 3.4LBER                1
 GAP=138   BER  1.21       5.4     3.7  6.8 -0.4497E+01  0.4017E+01 -0.2843E+02E
 2012-10-19-0836-54S.NSN___018                                                 6
 OLDACT:REG 21-08-27 22:47 OP:opt  STATUS:               ID:20121019083653     3
 ACTION:UP  21-08-28 22:15 OP:opt  STATUS:               ID:20121019083653     I
 OLDACT:UP  21-08-28 12:59 OP:opt  STATUS:               ID:20121019083653     3
 STAT COM NTLO IPHASE   W HHMM SS.SSS   PAR1  PAR2 AGA OPE  AIN  RES W  DIS CAZ7
 WEIJ HHZ GH   IP         0838 30.070              BER opt145.0-0.5110 4.35 189 
 WEIJ HHN GH   ISg        0838 31.940              BER opt145.0 0.4610 4.35 189 
 WEIJ HHN GH    IAML      0838 32.11036010.0  0.18 BER opt     -0.00   4.35 189 
 SHAI HHZ GH   IP         0838 37.780              BER opt 96.0-0.5310 55.1  52 
 SHAI HHN GH    IAML      0838 46.870 5250.5  0.14 BER opt      0.23   55.1  52 
 KUKU HHZ GH   IP         0838 39.990              BER opt 96.0 0.4610 62.6 356 
 AKOS HHN GH    IAML      0838 54.980   93.2  4.13 BER opt     -1.25   86.1  30 
 KLEF HHZ GH   IP         0838 51.010              BER opt 70.0-0.3410  138  38 
 KLEF HHN GH   ISg        0839 08.590              BER opt 93.0 0.3610  138  38 
 KLEF HHN GH    IAML      0839 10.550 3427.5  0.10 BER opt      0.64    138  38 
 MRON HHZ GH   IP         0838 53.890              BER opt 50.0 0.5310  154 307 
 MRON HHN GH   ISg        0839 12.160              BER opt 92.0-0.4410  154 307 
 MRON HHE GH    IAML      0839 14.680 1562.0  0.16 BER opt      0.38    154 307 
                                                                                
 2012 1029 1751 40.0 L   5.613  -0.507 4.10  BER  4 .20 3.1LBER                1
 GAP=252   BER 0.490       9.0     2.6  6.0  0.1717E+02  0.5761E+01  0.3297E+02E
 2012-10-29-1749-51S.NSN___015                                                 6
 OLDACT:REG 21-08-27 22:45 OP:opt  STATUS:               ID:20121029174950     3
 OLDACT:UP  21-08-28 13:10 OP:opt  STATUS:               ID:20121029174950     3
 OLDACT:UP  21-08-29 10:55 OP:opt  STATUS:               ID:20121029174950     3
 ACTION:UP  21-08-29 13:00 OP:opt  STATUS:               ID:20121029174950     I
 OLDACT:UP  21-08-29 13:00 OP:opt  STATUS:               ID:20121029174950     3
 STAT COM NTLO IPHASE   W HHMM SS.SSS   PAR1  PAR2 AGA OPE  AIN  RES W  DIS CAZ7
 KUKU HHZ GH   IP         1751 50.850              BER opt 94.0 0.2010 65.8  13 
 KUKU HHN GH    IAML      1751 51.540  517.5  0.10 BER opt     -0.32   65.8  13 
 SHAI HHZ GH   IP         1751 51.620              BER opt 93.0-0.1110 72.5  60 
 SHAI HHN GH    IAML      1752 07.720  593.0  0.18 BER opt     -0.20   72.5  60 
 AKOS HHN GH    IAML      1751 58.240  496.5  0.10 BER opt     -0.08   98.9  40 
 MRON HHZ GH   IP         1752 02.440              BER opt 70.0 0.1710  140 312 
 MRON HHE GH   ISg        1752 19.020              BER opt 92.0-0.1710  140 312 
 MRON HHN GH    IAML      1752 23.220  292.0  0.12 BER opt     -0.07    140 312 
 KLEF HHZ GH   IP         1752 03.910              BER opt 50.0-0.0910  152  43 
 KLEF HHE GH    IAML      1752 05.570  749.0  0.48 BER opt      0.40    152  43 
 KLEF HHN GH    IAML      1752 21.710  577.5  0.18 BER opt      0.29    152  43 
                                                                                
 2012 1118 1326 00.3 L   5.894   0.031 0.00  BER  3 .70 2.9LBER                1
 GAP=194   BER  1.77       7.0     6.4 18.8 -0.3010E+02  0.2441E+02 -0.1772E+02E
 2012-11-18-1324-29S.NSN___018                                                 6
 OLDACT:REG 21-08-27 22:43 OP:opt  STATUS:               ID:20121118132428     3
 ACTION:UP  21-08-29 13:18 OP:opt  STATUS:               ID:20121118132428     I
 OLDACT:UP  21-08-29 13:15 OP:opt  STATUS:               ID:20121118132428     3
 STAT COM NTLO IPHASE   W HHMM SS.SSS   PAR1  PAR2 AGA OPE  AIN  RES W  DIS CAZ7
 SHAI HHZ GH   IP         1326 00.960              BER opt 91.0-0.3310 5.95  36 
 SHAI HHE GH   ISg        1326 01.890              BER opt 91.0-0.1110 5.95  36 
 SHAI HHN GH    IAML      1326 02.19016036.0  0.20 BER opt      0.13   5.95  36 
 AKOS HHN GH    IAML      1326 15.480  704.5  0.22 BER opt     -0.18   44.9   5 
 WEIJ HHN GH   IP         1326 08.460              BER opt 90.0-0.3510 52.6 230 
 WEIJ HHE GH   ISg        1326 14.960              BER opt 90.0-0.1310 52.6 230 
 WEIJ HHN GH    IAML      1326 19.800  242.5  0.34 BER opt     -0.56   52.6 230 
 MRON HHZ GH   IP         1326 28.980              BER opt 50.0 1.5210  174 291 
 MRON HHN GH   ISg        1326 48.660              BER opt 90.0-0.5910  174 291 
 MRON HHN GH    IAML      1326 52.160  545.0  0.22 BER opt      0.60    174 291 
                                                                                
 2012 1124 0300 47.8 L   5.487  -0.412 0.00  BER  3 .20 3.0LBER                1
 GAP=276   BER 0.570       5.2     2.7  8.5  0.3104E+01  0.8037E+01  0.2869E+02E
 2012-11-24-0258-50S.NSN___018                                                 6
 ACTION:UP  21-08-29 13:23 OP:opt  STATUS:               ID:20121124025849     I
 OLDACT:REG 21-08-27 22:42 OP:opt  STATUS:               ID:20121124025849     3
 STAT COM NTLO IPHASE   W HHMM SS.SSS   PAR1  PAR2 AGA OPE  AIN  RES W  DIS CAZ7
 WEIJ HHZ GH   IP         0300 49.930              BER opt 91.0-0.1910 14.2  38 
 WEIJ HHN GH    IAML      0300 52.520 3504.0  0.20 BER opt     -0.24   14.2  38 
 KUKU HHZ GH   IP         0301 00.360              BER opt 90.0-0.0810 78.2   3 
 KUKU HHN GH   ISg        0301 09.950              BER opt 90.0 0.1910 78.2   3 
 KLEF HHN GH    IAML      0301 35.640  189.5  0.16 BER opt     -0.08    156  37 
 MRON HHN GH   IP         0301 13.060              BER opt 50.0 0.2810  157 314 
 MRON HHE GH   ISg        0301 31.630              BER opt 90.0-0.2010  157 314 
 MRON HHN GH    IAML      0301 34.540  469.5  0.20 BER opt      0.32    157 314 
                                                                                
 2012 1130 0804 47.7 L   5.571  -0.403 0.00  BER  4 .50 3.0LBER                1
 GAP=235   BER  1.27       8.9     3.5 19.8  0.1274E+02  0.2616E+02  0.4468E+02E
 2012-11-30-0802-48S.NSN___018                                                 6
 ACTION:UP  21-08-29 13:31 OP:opt  STATUS:               ID:20121130080248     I
 OLDACT:REG 21-08-27 22:41 OP:opt  STATUS:               ID:20121130080248     3
 STAT COM NTLO IPHASE   W HHMM SS.SSS   PAR1  PAR2 AGA OPE  AIN  RES W  DIS CAZ7
 WEIJ HHZ GH   IP         0804 48.230              BER opt 92.0-0.7910 7.96  76 
 WEIJ HHN GH   ISg        0804 50.450              BER opt 92.0 0.4810 7.96  76 
 WEIJ HHN GH    IAML      0804 50.550 3851.5  0.22 BER opt     -0.48   7.96  76 
 KUKU HHZ GH   IP         0804 58.610              BER opt 90.0-0.2210 68.8   3 
 KUKU HHE GH    IAML      0805 13.080  765.5  0.12 BER opt     -0.03   68.8   3 
 KLEF HHZ GH   IP         0805 12.360              BER opt 70.0 0.7910  148  39 
 KLEF HHN GH   ISg        0805 29.030              BER opt 90.0-0.3510  148  39 
 KLEF HHE GH    IAML      0805 34.090  596.0  0.18 BER opt      0.38    148  39 
 MRON HHZ GH   IP         0805 11.990              BER opt 70.0-0.0010  151 311 
 MRON HHN GH   ISg        0805 30.270              BER opt 90.0 0.1010  151 311 
 MRON HHE GH    IAML      0805 31.750  302.5  0.14 BER opt      0.10    151 311 
                                                                                
 2012 1130 1037 37.4 L   5.626  -0.330 0.00  BER  3 .40 2.5LBER                1
 GAP=189   BER  1.13       2.5     6.5 11.9  0.4360E+01  0.1481E+02 -0.3881E+01E
 2012-11-30-1035-47S.NSN___018                                                 6
 ACTION:UP  21-08-29 14:59 OP:opt  STATUS:               ID:20121130103547     I
 OLDACT:REG 21-08-27 22:41 OP:opt  STATUS:               ID:20121130103547     3
 STAT COM NTLO IPHASE   W HHMM SS.SSS   PAR1  PAR2 AGA OPE  AIN  RES W  DIS CAZ7
 WEIJ HHZ GH   IP         1037 37.880              BER opt 93.0-0.2510 4.19 185 
 WEIJ HHN GH   ISg        1037 38.700              BER opt 93.0 0.0710 4.19 185 
 WEIJ HHN GH    IAML      1037 39.000 7694.5  0.22 BER opt     -0.00   4.19 185 
 KUKU HHZ GH   IP         1037 47.060              BER opt 90.0-0.5110 62.7 356 
 KUKU HHN GH    IAML      1037 49.880  291.5  0.14 BER opt     -0.00   62.7 356 
 KUKU HHN GH   ISg        1037 55.270              BER opt 90.0 0.2110 62.7 356 
 MRON HHZ GH   IP         1038 02.830              BER opt 50.0 0.8210  154 307 
 MRON HHN GH   ISg        1038 20.230              BER opt 90.0-0.3510  154 307 
                                                                                
 2012 1206 1532 51.7 L   5.786  -0.277 15.0  BER  5 4.3 2.8LBER                1
 GAP=130   BER 11.08      28.1    31.3196.8 -0.2613E+03  0.2295E+04 -0.2427E+04E
 2012-12-06-1530-54S.NSN___018                                                 6
 OLDACT:REG 21-08-27 22:40 OP:opt  STATUS:               ID:20121206153054     3
 ACTION:UP  21-08-29 15:05 OP:opt  STATUS:               ID:20121206153054     I
 OLDACT:UP  21-08-28 13:22 OP:opt  STATUS:               ID:20121206153054     3
 STAT COM NTLO IPHASE   W HHMM SS.SSS   PAR1  PAR2 AGA OPE  AIN  RES W  DIS CAZ7
 WEIJ HHZ GH   IP         1532 54.400              BER opt119.0-1.6410 22.7 196 
 WEIJ HHN GH   ISg        1532 57.320              BER opt119.0-1.9410 22.7 196 
 WEIJ HHN GH    IAML      1532 59.920 1032.5  0.18 BER opt     -0.19   22.7 196 
 SHAI HHZ GH   IP         1533 03.450              BER opt103.0 4.7910 41.2  66 
 KUKU HHZ GH   IP         1533 02.540              BER opt100.0 3.1510 46.1 347 
 KUKU HHN GH    IAML      1533 03.320  522.5  0.14 BER opt     -0.17   46.1 347 
 KLEF HHN GH   ISg        1533 16.180              BER opt 92.0-8.6810  121  41 
 KLEF HHZ GH   IP         1533 16.380              BER opt 55.0 5.6510  121  41 
 KLEF HHN GH    IAML      1533 35.730  464.5  0.20 BER opt      0.36    121  41 
 MRON HHZ GH   IP         1533 14.260              BER opt 55.0 0.1110  149 300 
 MRON HHN GH   ISg        1533 30.660              BER opt 91.0-1.4410  149 300 
                                                                                
 2012 1212 1745 14.6 L   5.545  -0.542 0.00  BER  5 .30 3.3LBER                1
 GAP=238   BER 0.860       4.2     2.2  9.0  0.3063E+01  0.6569E+01  0.1437E+02E
 2012-12-12-1743-38S.NSN___018                                                 6
 OLDACT:REG 21-08-27 22:38 OP:opt  STATUS:               ID:20121212174337     3
 OLDACT:UP  21-08-28 13:24 OP:opt  STATUS:               ID:20121212174337     3
 ACTION:UP  21-08-29 15:22 OP:opt  STATUS:               ID:20121212174337     I
 OLDACT:UP  21-08-28 13:25 OP:opt  STATUS:               ID:20121212174337     3
 STAT COM NTLO IPHASE   W HHMM SS.SSS   PAR1  PAR2 AGA OPE  AIN  RES W  DIS CAZ7
 WEIJ HHZ GH   IP         1745 18.210              BER opt 91.0-0.2010 23.7  78 
 WEIJ HHE GH   ISg        1745 21.090              BER opt 91.0-0.1510 23.7  78 
 WEIJ HHN GH    IAML      1745 21.380 2489.0  0.24 BER opt     -0.45   23.7  78 
 KUKU HHZ GH   IP         1745 26.370              BER opt 90.0-0.1910 74.2  15 
 KUKU HHN GH    IAML      1745 27.110 1324.5  0.14 BER opt     -0.08   74.2  15 
 KUKU HHE GH   ISg        1745 35.440              BER opt 90.0 0.0310 74.2  15 
 SHAI HHN GH    IAML      1745 41.810 1243.0  0.14 BER opt     -0.06   79.8  57 
 AKOS HHZ GH   IP         1745 32.040              BER opt 90.0 0.1410  107  39 
 AKOS HHN GH    IAML      1745 33.930 1386.0  0.10 BER opt      0.18    107  39 
 AKOS HHN GH   ISg        1745 45.240              BER opt 90.0 0.5310  107  39 
 MRON HHZ GH   IP         1745 37.960              BER opt 70.0 0.5110  142 316 
 MRON HHN GH    IAML      1745 40.320  371.5  0.20 BER opt     -0.19    142 316 
 MRON HHN GH   ESg        1745 54.010              BER opt 90.0-0.4310  142 316 
 KLEF HHZ GH   IP         1745 40.170              BER opt 50.0 0.1410  161  43 
 KLEF HHN GH    IAML      1745 40.510 1977.0  0.10 BER opt      0.63    161  43 
 KLEF HHN GH   ISg        1745 59.320              BER opt 90.0-0.3810  161  43 
                                                                                
 2012 1225 1351 18.8 L   5.650  -0.291 0.00  BER  5 .30 3.1LBER                1
 GAP=163   BER 0.920       2.2     2.4  9.4 -0.2320E+01  0.5036E+01 -0.2315E+01E
 2012-12-25-1349-44S.NSN___018                                                 6
 OLDACT:REG 21-08-27 22:37 OP:opt  STATUS:               ID:20121225134944     3
 ACTION:UP  21-08-29 15:37 OP:opt  STATUS:               ID:20121225134944     I
 OLDACT:UP  21-08-28 13:27 OP:opt  STATUS:               ID:20121225134944     3
 STAT COM NTLO IPHASE   W HHMM SS.SSS   PAR1  PAR2 AGA OPE  AIN  RES W  DIS CAZ7
 WEIJ HHZ GH   IP         1351 20.040              BER opt 91.0-0.1210 8.29 214 
 WEIJ HHN GH   ISg        1351 21.350              BER opt 91.0 0.2010 8.29 214 
 WEIJ HHN GH    IAML      1351 21.54013499.0  0.20 BER opt      0.01   8.29 214 
 SHAI HHZ GH   IP         1351 26.600              BER opt 90.0-0.3610 50.4  51 
 SHAI HHE GH   ISg        1351 32.840              BER opt 90.0-0.1310 50.4  51 
 SHAI HHN GH    IAML      1351 32.870 1009.5  0.20 BER opt     -0.17   50.4  51 
 KUKU HHZ GH   IP         1351 28.890              BER opt 90.0 0.3010 60.5 352 
 KUKU HHE GH   ISg        1351 36.030              BER opt 90.0 0.2210 60.5 352 
 KUKU HHN GH    IAML      1351 36.610  775.0  0.14 BER opt     -0.18   60.5 352 
 KLEF HHZ GH   IP         1351 40.020              BER opt 90.0-0.4010  134  37 
 KLEF HHN GH   ISg        1351 56.790              BER opt 90.0 0.4010  134  37 
 KLEF HHN GH    IAML      1352 00.310  817.0  0.10 BER opt      0.37    134  37 
 MRON HHZ GH   IP         1351 44.070              BER opt 50.0 0.4410  156 305 
 MRON HHN GH   ISg        1352 01.940              BER opt 90.0-0.5510  156 305 
 MRON HHN GH    IAML      1352 03.310  256.0  0.18 BER opt     -0.02    156 305 
                                                                                
 2013 0111 1631 46.9 L   5.597  -0.319 8.20  BER  6 .50 3.1LBER                1
 GAP=191   BER  1.29       4.7     3.3  3.8 -0.4645E+01  0.6763E-01 -0.9682E+01E
 2013-01-11-1629-48S.NSN___018                                                 6
 OLDACT:REG 21-08-27 22:34 OP:opt  STATUS:               ID:20130111162947     3
 OLDACT:UP  21-08-28 13:32 OP:opt  STATUS:               ID:20130111162947     3
 ACTION:UP  21-08-29 17:27 OP:opt  STATUS:               ID:20130111162947     I
 OLDACT:REE 21-08-29 15:41 OP:opt  STATUS:               ID:20130111162947     3
 STAT COM NTLO IPHASE   W HHMM SS.SSS   PAR1  PAR2 AGA OPE  AIN  RES W  DIS CAZ7
 WEIJ HHZ GH   IP         1631 47.980              BER opt168.0-0.3110 1.81 239 
 WEIJ HHE GH   ISg        1631 49.530              BER opt168.0 0.2110 1.81 239 
 WEIJ HHN GH   ISg        1631 49.570              BER opt168.0 0.2510 1.81 239 
 WEIJ HHN GH    IAML      1631 49.760 6151.5  0.20 BER opt     -0.33   1.81 239 
 SHAI HHZ GH   IP         1631 55.630              BER opt 98.0-0.5110 56.6  48 
 SHAI HHE GH   ISg        1632 02.680              BER opt 98.0-0.2910 56.6  48 
 SHAI HHN GH    IAML      1632 03.340 1855.0  0.10 BER opt      0.17   56.6  48 
 KUKU HHN GH    IAML      1631 57.890  780.5  0.10 BER opt     -0.12   66.1 355 
 KUKU HHZ GH   IP         1631 57.940              BER opt 97.0 0.2910 66.1 355 
 KUKU HHN GH   ISg        1632 06.200              BER opt 97.0 0.6010 66.1 355 
 AKOS HHZ GH   IP         1632 01.030              BER opt 70.0-0.1910 88.6  29 
 AKOS HHE GH   ISg        1632 12.340              BER opt 95.0 0.4510 88.6  29 
 AKOS HHN GH    IAML      1632 14.090 1282.0  0.14 BER opt      0.28   88.6  29 
 KLEF HHZ GH   IP         1632 09.040              BER opt 50.0 0.0510  140  37 
 KLEF HHN GH    IAML      1632 11.240  321.5  0.12 BER opt      0.00    140  37 
 KLEF HHN GH   ISg        1632 26.100              BER opt 93.0-0.3010  140  37 
 MRON HHZ GH   IP         1632 11.770              BER opt 50.0 0.7710  157 308 
 MRON HHN GH   ISg        1632 29.890              BER opt 93.0-1.0310  157 308 
                                                                                
